{"type":"FeatureCollection","features":[{"type":"Feature","id":"10504","properties":{"name":"AMAZONAS","density":0,"path":"/world/Peru/AMAZONAS"},"geometry":{"type":"Polygon","coordinates":[[[-77.758934,-6.964508],[-77.845865,-6.976398],[-77.880342,-6.962504],[-77.927528,-6.986709],[-77.999506,-6.970532],[-78.014064,-6.822303],[-78.058195,-6.67615],[-78.107599,-6.642332],[-78.136028,-6.526302],[-78.190029,-6.457016],[-78.255151,-6.394783],[-78.333735,-6.350978],[-78.335386,-6.318679],[-78.438164,-6.165693],[-78.518803,-6.071476],[-78.589443,-6.076536],[-78.612272,-6.018182],[-78.66032,-5.955559],[-78.712015,-5.830443],[-78.683798,-5.707054],[-78.604816,-5.607208],[-78.558515,-5.499089],[-78.515178,-5.454349],[-78.518402,-5.399279],[-78.604492,-5.309898],[-78.684244,-5.26749],[-78.709113,-5.179629],[-78.700624,-5.104083],[-78.657714,-5.067423],[-78.619631,-5.000525],[-78.64582,-4.962266],[-78.600646,-4.773387],[-78.644661,-4.736452],[-78.637938,-4.657982],[-78.705955,-4.623873],[-78.660806,-4.586063],[-78.661123,-4.530081],[-78.637568,-4.500911],[-78.634078,-4.413238],[-78.652273,-4.332513],[-78.618244,-4.294222],[-78.581322,-4.135498],[-78.540792,-4.073877],[-78.56611,-3.993301],[-78.524505,-3.937264],[-78.488669,-3.933608],[-78.476531,-3.858693],[-78.413907,-3.79261],[-78.402476,-3.735388],[-78.422738,-3.69089],[-78.400818,-3.651339],[-78.387693,-3.554971],[-78.36493,-3.529699],[-78.359183,-3.469522],[-78.31874,-3.395069],[-78.246211,-3.402326],[-78.21479,-3.508594],[-78.149169,-3.480796],[-78.171209,-3.350828],[-77.951367,-3.090525],[-77.93251,-3.035284],[-77.891507,-3.009035],[-77.808616,-2.986125],[-77.778525,-3.187176],[-77.776479,-3.409131],[-77.760539,-3.459803],[-77.616936,-3.634302],[-77.615623,-3.707719],[-77.651822,-3.77901],[-77.569405,-3.87275],[-77.541773,-3.943334],[-77.538123,-4.028708],[-77.549656,-4.109893],[-77.585551,-4.251334],[-77.565387,-4.372462],[-77.585943,-4.475013],[-77.655457,-4.518545],[-77.671945,-4.629468],[-77.771879,-4.717559],[-77.794622,-4.763007],[-77.793575,-4.849963],[-77.760152,-4.909345],[-77.75929,-4.951781],[-77.82462,-5.031779],[-77.822277,-5.081793],[-77.774287,-5.097178],[-77.695978,-5.16366],[-77.73956,-5.212597],[-77.69308,-5.267685],[-77.682066,-5.338396],[-77.695958,-5.411053],[-77.743035,-5.406467],[-77.768451,-5.438049],[-77.765762,-5.538982],[-77.736891,-5.605139],[-77.773707,-5.685207],[-77.763929,-5.819709],[-77.677883,-5.859647],[-77.651891,-5.935332],[-77.669225,-5.980365],[-77.593456,-6.009347],[-77.533809,-6.063371],[-77.478615,-6.000894],[-77.434463,-6.060412],[-77.395498,-6.039377],[-77.346428,-6.114341],[-77.281533,-6.141718],[-77.222985,-6.146896],[-77.199996,-6.231179],[-77.132725,-6.302421],[-77.171732,-6.38117],[-77.221456,-6.381133],[-77.260008,-6.327706],[-77.28666,-6.331023],[-77.273159,-6.406531],[-77.326357,-6.468027],[-77.335152,-6.522328],[-77.39387,-6.602688],[-77.436149,-6.605217],[-77.381733,-6.697589],[-77.544074,-6.676996],[-77.612337,-6.612261],[-77.693363,-6.678525],[-77.745606,-6.665158],[-77.746714,-6.751838],[-77.761718,-6.807748],[-77.723325,-6.893456],[-77.758934,-6.964508]]]}},{"type":"Feature","id":"10505","properties":{"name":"ANCASH","density":0,"path":"/world/Peru/ANCASH"},"geometry":{"type":"Polygon","coordinates":[[[-77.317486,-8.530152],[-77.289027,-8.589305],[-77.29485,-8.632934],[-77.260596,-8.648521],[-77.246295,-8.702348],[-77.164836,-8.889098],[-77.131633,-8.915625],[-77.109797,-8.970205],[-77.037187,-8.999289],[-76.980102,-9.062918],[-76.78858,-9.136238],[-76.733734,-9.208967],[-76.725744,-9.256635],[-76.757488,-9.362197],[-76.814375,-9.326008],[-76.842295,-9.261734],[-76.935236,-9.398549],[-76.952334,-9.469697],[-76.93801,-9.526578],[-76.995271,-9.603443],[-77.048488,-9.647461],[-76.986506,-9.749105],[-76.970394,-9.711488],[-76.901383,-9.770496],[-76.895211,-9.815602],[-76.813676,-9.961572],[-76.825615,-9.989293],[-76.808422,-10.084846],[-76.915465,-10.119914],[-76.906246,-10.274186],[-76.965451,-10.305379],[-77.00672,-10.284232],[-77.024712,-10.327527],[-77.071612,-10.338104],[-77.110986,-10.403342],[-77.174625,-10.464602],[-77.190988,-10.552133],[-77.251871,-10.545242],[-77.310629,-10.567691],[-77.39531,-10.66154],[-77.41543,-10.72998],[-77.49496,-10.746103],[-77.577174,-10.72857],[-77.586372,-10.646945],[-77.57665,-10.583748],[-77.64073,-10.596272],[-77.64426,-10.527409],[-77.736781,-10.563212],[-77.68392,-10.431386],[-77.597593,-10.380364],[-77.692391,-10.320902],[-77.752922,-10.322154],[-77.760212,-10.430221],[-77.796178,-10.483293],[-77.772443,-10.512478],[-77.771376,-10.571615],[-77.832989,-10.567483],[-77.886271,-10.61192],[-77.90816,-10.544287],[-77.960623,-10.492519],[-78.010603,-10.374699],[-78.054547,-10.345955],[-78.10226,-10.20015],[-78.16357,-10.147191],[-78.175342,-10.04585],[-78.242648,-9.873646],[-78.226027,-9.795478],[-78.27201,-9.75607],[-78.321816,-9.661748],[-78.364853,-9.620471],[-78.367988,-9.55531],[-78.397738,-9.472115],[-78.380111,-9.44549],[-78.427941,-9.411289],[-78.425396,-9.341299],[-78.475064,-9.331539],[-78.508982,-9.278814],[-78.48681,-9.203348],[-78.508301,-9.180383],[-78.572242,-9.17157],[-78.561269,-9.116152],[-78.624791,-9.078074],[-78.644924,-8.969228],[-78.591662,-8.945999],[-78.588281,-8.858677],[-78.565343,-8.792599],[-78.518139,-8.752981],[-78.448228,-8.736927],[-78.35481,-8.673279],[-78.246135,-8.658363],[-78.193525,-8.600111],[-78.216879,-8.556918],[-78.173656,-8.503537],[-78.139469,-8.427832],[-78.137498,-8.368668],[-78.11595,-8.3101],[-78.018635,-8.224316],[-77.933213,-8.19701],[-77.897904,-8.076016],[-77.810441,-8.067735],[-77.71943,-8.073445],[-77.647111,-8.050281],[-77.63652,-8.106192],[-77.605687,-8.154811],[-77.557217,-8.193732],[-77.458896,-8.335656],[-77.438896,-8.419862],[-77.400338,-8.481967],[-77.317486,-8.530152]]]}},{"type":"Feature","id":"10506","properties":{"name":"APURIMAC","density":0,"path":"/world/Peru/APURIMAC"},"geometry":{"type":"Polygon","coordinates":[[[-72.471771,-14.661399],[-72.577248,-14.686617],[-72.644821,-14.667281],[-72.724709,-14.6759],[-72.789696,-14.650213],[-72.828575,-14.702628],[-72.846825,-14.759824],[-72.865637,-14.710684],[-72.955307,-14.682684],[-73.009412,-14.637389],[-73.106489,-14.690654],[-73.153237,-14.674345],[-73.190412,-14.705775],[-73.25611,-14.70901],[-73.27995,-14.731632],[-73.350807,-14.704029],[-73.390403,-14.716062],[-73.404549,-14.765496],[-73.485027,-14.84257],[-73.565281,-14.775834],[-73.571099,-14.687272],[-73.510061,-14.650101],[-73.533379,-14.581021],[-73.51165,-14.563664],[-73.535057,-14.491545],[-73.568988,-14.45933],[-73.51225,-14.268158],[-73.611102,-14.088719],[-73.618322,-14.026135],[-73.656471,-13.929951],[-73.67915,-13.916318],[-73.697779,-13.847416],[-73.747888,-13.763366],[-73.669533,-13.734849],[-73.74362,-13.655562],[-73.791921,-13.64096],[-73.814244,-13.509212],[-73.846961,-13.397433],[-73.807955,-13.303796],[-73.82282,-13.285052],[-73.797029,-13.199943],[-73.75644,-13.170715],[-73.726223,-13.268662],[-73.641949,-13.299478],[-73.57176,-13.341834],[-73.48091,-13.431371],[-73.403323,-13.444751],[-73.347163,-13.434832],[-73.233903,-13.476587],[-73.211929,-13.419102],[-73.103381,-13.448589],[-73.015126,-13.426669],[-72.971462,-13.390228],[-72.894086,-13.390127],[-72.886308,-13.415865],[-72.793413,-13.426124],[-72.745449,-13.482895],[-72.656768,-13.513355],[-72.636876,-13.542142],[-72.563042,-13.551416],[-72.421398,-13.60608],[-72.401748,-13.659506],[-72.299166,-13.704445],[-72.230927,-13.705277],[-72.135332,-13.783065],[-72.077826,-13.906728],[-72.055731,-13.930124],[-72.051674,-14.012387],[-72.067902,-14.076543],[-72.05667,-14.128811],[-72.095195,-14.173734],[-72.081488,-14.202303],[-72.187107,-14.313224],[-72.239516,-14.348472],[-72.249505,-14.402926],[-72.317199,-14.440689],[-72.357625,-14.435964],[-72.393082,-14.48185],[-72.427461,-14.479023],[-72.50291,-14.551662],[-72.461699,-14.60587],[-72.471771,-14.661399]]]}},{"type":"Feature","id":"10507","properties":{"name":"AREQUIPA","density":0,"path":"/world/Peru/AREQUIPA"},"geometry":{"type":"Polygon","coordinates":[[[-75.073326,-15.442942],[-75.049652,-15.434504],[-75.00388,-15.33023],[-74.968201,-15.299422],[-74.939865,-15.206012],[-74.870602,-15.151229],[-74.815918,-15.139498],[-74.762299,-15.098055],[-74.718605,-15.135663],[-74.605972,-15.148498],[-74.552521,-15.139941],[-74.451421,-15.175973],[-74.39872,-15.181463],[-74.387878,-15.25178],[-74.409462,-15.308494],[-74.309718,-15.358937],[-74.328431,-15.390994],[-74.300124,-15.478395],[-74.193741,-15.49166],[-74.15126,-15.428751],[-74.094521,-15.392003],[-74.037292,-15.456078],[-74.08493,-15.591536],[-74.068649,-15.629887],[-73.945961,-15.490403],[-73.868271,-15.42613],[-73.874863,-15.355065],[-73.860054,-15.326117],[-73.807991,-15.324275],[-73.758865,-15.385265],[-73.684364,-15.437484],[-73.651611,-15.416279],[-73.557404,-15.408611],[-73.442902,-15.356119],[-73.392166,-15.398737],[-73.294525,-15.39233],[-73.28492,-15.294937],[-73.245933,-15.286092],[-73.174545,-15.306607],[-73.116837,-15.222852],[-73.110748,-15.186107],[-73.047562,-15.134348],[-73.004242,-15.064127],[-72.986656,-14.956103],[-73.031464,-14.900051],[-73.002785,-14.814986],[-72.942726,-14.765414],[-72.846825,-14.759824],[-72.828575,-14.702628],[-72.789696,-14.650213],[-72.724709,-14.6759],[-72.644821,-14.667281],[-72.577248,-14.686617],[-72.471771,-14.661399],[-72.48613,-14.712543],[-72.470947,-14.774775],[-72.406479,-14.827085],[-72.315445,-14.833863],[-72.252289,-14.803659],[-72.144699,-14.777713],[-72.128693,-14.830602],[-72.047127,-14.875063],[-72.034256,-14.81199],[-72.041862,-14.694371],[-71.987915,-14.63295],[-71.941215,-14.685325],[-71.958633,-14.728016],[-71.924004,-14.789797],[-71.89005,-14.790873],[-71.852089,-14.88809],[-71.797623,-14.895982],[-71.74596,-14.93987],[-71.767456,-15.010524],[-71.802956,-15.067441],[-71.667953,-15.091896],[-71.636024,-15.139139],[-71.587601,-15.125595],[-71.570627,-15.061207],[-71.511711,-15.079448],[-71.48587,-15.059105],[-71.50705,-14.976275],[-71.430817,-14.998084],[-71.37268,-15.07911],[-71.315628,-15.120225],[-71.260225,-15.076908],[-71.20684,-15.071889],[-71.143578,-15.120561],[-71.180389,-15.16262],[-71.160329,-15.207768],[-71.201836,-15.245445],[-71.165398,-15.288882],[-71.151154,-15.363941],[-71.174332,-15.424457],[-71.071747,-15.449273],[-71.038971,-15.405166],[-70.993957,-15.454842],[-71.015175,-15.489165],[-71.008179,-15.563969],[-70.917984,-15.643801],[-70.900131,-15.712147],[-70.936142,-15.78484],[-70.843277,-15.923256],[-70.820198,-15.978468],[-70.812569,-16.053961],[-70.856735,-16.056337],[-70.875061,-16.094578],[-70.853882,-16.241466],[-70.957016,-16.308403],[-70.98629,-16.309946],[-70.975243,-16.412165],[-70.952926,-16.460989],[-70.992454,-16.495867],[-71.07827,-16.458565],[-71.139519,-16.474974],[-71.245644,-16.466864],[-71.244797,-16.550228],[-71.279152,-16.615822],[-71.289093,-16.726458],[-71.327568,-16.752256],[-71.36943,-16.719677],[-71.425499,-16.740643],[-71.444305,-16.804674],[-71.440636,-16.865227],[-71.384613,-17.02111],[-71.339424,-17.021759],[-71.302246,-17.093851],[-71.440956,-17.251717],[-71.490799,-17.285006],[-71.690369,-17.211988],[-71.812218,-17.184311],[-71.857727,-17.158867],[-71.922646,-17.087505],[-72.038994,-17.01734],[-72.076157,-17.02116],[-72.211525,-16.902447],[-72.288277,-16.875254],[-72.295418,-16.827415],[-72.359283,-16.764152],[-72.44722,-16.703957],[-72.54319,-16.678059],[-72.709045,-16.652693],[-72.771904,-16.628803],[-72.91629,-16.520372],[-72.986847,-16.517435],[-73.053345,-16.489403],[-73.159157,-16.419926],[-73.224998,-16.412771],[-73.30481,-16.37974],[-73.314201,-16.338703],[-73.451256,-16.281307],[-73.619926,-16.230085],[-73.699371,-16.220703],[-73.727882,-16.195248],[-73.869354,-16.135544],[-73.889389,-16.109352],[-74.033081,-16.018059],[-74.054451,-15.954523],[-74.167191,-15.900853],[-74.2416,-15.878699],[-74.2752,-15.840465],[-74.327904,-15.848717],[-74.393303,-15.829308],[-74.439293,-15.79456],[-74.46283,-15.726521],[-74.661278,-15.652836],[-74.74968,-15.600381],[-74.830749,-15.567195],[-74.909973,-15.512114],[-75.006844,-15.460041],[-75.073326,-15.442942]],[[-71.185585,-16.384989],[-71.103233,-16.408703],[-71.096443,-16.350771],[-71.197357,-16.356909],[-71.185585,-16.384989]]]}},{"type":"Feature","id":"10508","properties":{"name":"AYACUCHO","density":0,"path":"/world/Peru/AYACUCHO"},"geometry":{"type":"Polygon","coordinates":[[[-74.345946,-12.173737],[-74.321873,-12.229777],[-74.270516,-12.239145],[-74.187618,-12.314376],[-74.121439,-12.333601],[-74.098357,-12.284914],[-73.980452,-12.242588],[-73.965859,-12.336451],[-73.886792,-12.405397],[-73.826799,-12.531159],[-73.801173,-12.613024],[-73.74829,-12.65766],[-73.725367,-12.640694],[-73.625667,-12.764992],[-73.590809,-12.844289],[-73.523676,-12.899478],[-73.521662,-12.990688],[-73.477967,-13.032259],[-73.448839,-13.107874],[-73.42191,-13.132395],[-73.348363,-13.298241],[-73.287354,-13.371943],[-73.211929,-13.419102],[-73.233903,-13.476587],[-73.347163,-13.434832],[-73.403323,-13.444751],[-73.48091,-13.431371],[-73.57176,-13.341834],[-73.641949,-13.299478],[-73.726223,-13.268662],[-73.75644,-13.170715],[-73.797029,-13.199943],[-73.82282,-13.285052],[-73.807955,-13.303796],[-73.846961,-13.397433],[-73.814244,-13.509212],[-73.791921,-13.64096],[-73.74362,-13.655562],[-73.669533,-13.734849],[-73.747888,-13.763366],[-73.697779,-13.847416],[-73.67915,-13.916318],[-73.656471,-13.929951],[-73.618322,-14.026135],[-73.611102,-14.088719],[-73.51225,-14.268158],[-73.568988,-14.45933],[-73.535057,-14.491545],[-73.51165,-14.563664],[-73.533379,-14.581021],[-73.510061,-14.650101],[-73.571099,-14.687272],[-73.565281,-14.775834],[-73.485027,-14.84257],[-73.404549,-14.765496],[-73.390403,-14.716062],[-73.350807,-14.704029],[-73.27995,-14.731632],[-73.25611,-14.70901],[-73.190412,-14.705775],[-73.153237,-14.674345],[-73.106489,-14.690654],[-73.009412,-14.637389],[-72.955307,-14.682684],[-72.865637,-14.710684],[-72.846825,-14.759824],[-72.942726,-14.765414],[-73.002785,-14.814986],[-73.031464,-14.900051],[-72.986656,-14.956103],[-73.004242,-15.064127],[-73.047562,-15.134348],[-73.110748,-15.186107],[-73.116837,-15.222852],[-73.174545,-15.306607],[-73.245933,-15.286092],[-73.28492,-15.294937],[-73.294525,-15.39233],[-73.392166,-15.398737],[-73.442902,-15.356119],[-73.557404,-15.408611],[-73.651611,-15.416279],[-73.684364,-15.437484],[-73.758865,-15.385265],[-73.807991,-15.324275],[-73.860054,-15.326117],[-73.874863,-15.355065],[-73.868271,-15.42613],[-73.945961,-15.490403],[-74.068649,-15.629887],[-74.08493,-15.591536],[-74.037292,-15.456078],[-74.094521,-15.392003],[-74.15126,-15.428751],[-74.193741,-15.49166],[-74.300124,-15.478395],[-74.328431,-15.390994],[-74.309718,-15.358937],[-74.409462,-15.308494],[-74.387878,-15.25178],[-74.39872,-15.181463],[-74.451421,-15.175973],[-74.552521,-15.139941],[-74.605972,-15.148498],[-74.718605,-15.135663],[-74.762299,-15.098055],[-74.664267,-15.044696],[-74.663451,-14.907934],[-74.69384,-14.838155],[-74.746244,-14.843555],[-74.756007,-14.771131],[-74.802697,-14.752152],[-74.845742,-14.707979],[-74.852772,-14.611809],[-74.895418,-14.54508],[-74.95892,-14.606451],[-75.0599,-14.622618],[-75.069097,-14.526934],[-75.098138,-14.485097],[-75.101266,-14.433199],[-75.138049,-14.414656],[-75.093927,-14.312424],[-75.039979,-14.277879],[-75.090795,-14.215178],[-75.05905,-14.12962],[-75.02913,-14.07195],[-74.942361,-14.094687],[-74.841385,-14.073402],[-74.770287,-14.089793],[-74.783883,-14.016945],[-74.767955,-13.978552],[-74.785923,-13.928788],[-74.760364,-13.831487],[-74.775078,-13.803799],[-74.754385,-13.733967],[-74.781151,-13.648184],[-74.771388,-13.606499],[-74.79957,-13.54747],[-74.86218,-13.48179],[-74.9021,-13.46644],[-74.89772,-13.39531],[-74.86875,-13.3599],[-74.763863,-13.341393],[-74.69946,-13.36351],[-74.644654,-13.274137],[-74.570981,-13.18467],[-74.544473,-13.199394],[-74.458439,-13.190038],[-74.420426,-13.159539],[-74.40801,-13.06927],[-74.38623,-13.02931],[-74.345876,-13.025845],[-74.310349,-13.059606],[-74.270165,-13.02555],[-74.296553,-12.935009],[-74.327673,-12.928391],[-74.32963,-12.83615],[-74.2924,-12.82476],[-74.2892,-12.75801],[-74.34877,-12.71243],[-74.32753,-12.68127],[-74.34082,-12.63446],[-74.41512,-12.49066],[-74.42245,-12.44521],[-74.50354,-12.44981],[-74.581177,-12.332669],[-74.552117,-12.28734],[-74.38481,-12.26863],[-74.38886,-12.19267],[-74.345946,-12.173737]],[[-73.740172,-15.265978],[-73.73904,-15.307911],[-73.684904,-15.334225],[-73.640104,-15.291993],[-73.740172,-15.265978]]]}},{"type":"Feature","id":"10509","properties":{"name":"CAJAMARCA","density":0,"path":"/world/Peru/CAJAMARCA"},"geometry":{"type":"Polygon","coordinates":[[[-79.322586,-7.025684],[-79.296634,-6.999834],[-79.311009,-6.901342],[-79.26274,-6.859156],[-79.120848,-6.77697],[-79.141562,-6.701542],[-79.213791,-6.695631],[-79.22906,-6.671406],[-79.296416,-6.675672],[-79.366989,-6.549522],[-79.403275,-6.540732],[-79.431293,-6.479724],[-79.422888,-6.451882],[-79.45349,-6.396842],[-79.422658,-6.31043],[-79.353561,-6.304291],[-79.321789,-6.263058],[-79.252261,-6.226688],[-79.272529,-6.146731],[-79.223995,-6.055007],[-79.264342,-6.00246],[-79.418609,-5.9701],[-79.334068,-5.893631],[-79.38982,-5.79109],[-79.400689,-5.74951],[-79.375551,-5.606189],[-79.39832,-5.537018],[-79.272396,-5.518982],[-79.297699,-5.458127],[-79.328072,-5.315914],[-79.359049,-5.288627],[-79.348652,-5.232576],[-79.378408,-5.190521],[-79.294361,-5.11048],[-79.245086,-5.001359],[-79.21007,-4.965242],[-79.073537,-4.971055],[-79.011947,-5.013986],[-78.973891,-4.897021],[-78.895103,-4.891436],[-78.891685,-4.808006],[-78.912728,-4.791001],[-78.882752,-4.714062],[-78.83922,-4.656038],[-78.802524,-4.637469],[-78.705955,-4.623873],[-78.637938,-4.657982],[-78.644661,-4.736452],[-78.600646,-4.773387],[-78.64582,-4.962266],[-78.619631,-5.000525],[-78.657714,-5.067423],[-78.700624,-5.104083],[-78.709113,-5.179629],[-78.684244,-5.26749],[-78.604492,-5.309898],[-78.518402,-5.399279],[-78.515178,-5.454349],[-78.558515,-5.499089],[-78.604816,-5.607208],[-78.683798,-5.707054],[-78.712015,-5.830443],[-78.66032,-5.955559],[-78.612272,-6.018182],[-78.589443,-6.076536],[-78.518803,-6.071476],[-78.438164,-6.165693],[-78.335386,-6.318679],[-78.333735,-6.350978],[-78.255151,-6.394783],[-78.190029,-6.457016],[-78.136028,-6.526302],[-78.107599,-6.642332],[-78.058195,-6.67615],[-78.014064,-6.822303],[-77.999506,-6.970532],[-77.897869,-7.166807],[-77.880905,-7.221387],[-77.83105,-7.310031],[-77.813445,-7.39254],[-77.771986,-7.418458],[-77.741372,-7.466695],[-77.844168,-7.514381],[-77.870437,-7.58533],[-77.998642,-7.679074],[-78.081221,-7.696169],[-78.116053,-7.654007],[-78.224653,-7.759331],[-78.272421,-7.753518],[-78.302803,-7.696463],[-78.330139,-7.699628],[-78.382819,-7.630107],[-78.356792,-7.574006],[-78.359984,-7.500394],[-78.415633,-7.48507],[-78.491393,-7.554873],[-78.624572,-7.548559],[-78.649596,-7.529017],[-78.629843,-7.4455],[-78.662467,-7.412998],[-78.760125,-7.401984],[-78.841619,-7.437617],[-78.886685,-7.484102],[-78.895908,-7.537437],[-78.944344,-7.598418],[-78.96086,-7.657833],[-78.992149,-7.660949],[-79.041232,-7.599887],[-79.065428,-7.472709],[-79.152724,-7.43982],[-79.188175,-7.395413],[-79.256334,-7.381864],[-79.293119,-7.347261],[-79.347131,-7.336637],[-79.282627,-7.275061],[-79.267275,-7.192394],[-79.305301,-7.147146],[-79.322586,-7.025684]]]}},{"type":"Feature","id":"10510","properties":{"name":"CALLAO","density":0,"path":"/world/Peru/CALLAO"},"geometry":{"type":"Polygon","coordinates":[[[-77.187098,-11.828361],[-77.126048,-11.820788],[-77.089904,-11.901787],[-77.11755,-11.95697],[-77.08294,-12.036418],[-77.111533,-12.079492],[-77.151127,-12.067031],[-77.132742,-11.976492],[-77.15683,-11.874303],[-77.187098,-11.828361]]]}},{"type":"Feature","id":"10511","properties":{"name":"CUSCO","density":0,"path":"/world/Peru/CUSCO"},"geometry":{"type":"Polygon","coordinates":[[[-72.471771,-14.661399],[-72.461699,-14.60587],[-72.50291,-14.551662],[-72.427461,-14.479023],[-72.393082,-14.48185],[-72.357625,-14.435964],[-72.317199,-14.440689],[-72.249505,-14.402926],[-72.239516,-14.348472],[-72.187107,-14.313224],[-72.081488,-14.202303],[-72.095195,-14.173734],[-72.05667,-14.128811],[-72.067902,-14.076543],[-72.051674,-14.012387],[-72.055731,-13.930124],[-72.077826,-13.906728],[-72.135332,-13.783065],[-72.230927,-13.705277],[-72.299166,-13.704445],[-72.401748,-13.659506],[-72.421398,-13.60608],[-72.563042,-13.551416],[-72.636876,-13.542142],[-72.656768,-13.513355],[-72.745449,-13.482895],[-72.793413,-13.426124],[-72.886308,-13.415865],[-72.894086,-13.390127],[-72.971462,-13.390228],[-73.015126,-13.426669],[-73.103381,-13.448589],[-73.211929,-13.419102],[-73.287354,-13.371943],[-73.348363,-13.298241],[-73.42191,-13.132395],[-73.448839,-13.107874],[-73.477967,-13.032259],[-73.521662,-12.990688],[-73.523676,-12.899478],[-73.590809,-12.844289],[-73.625667,-12.764992],[-73.725367,-12.640694],[-73.74829,-12.65766],[-73.801173,-12.613024],[-73.826799,-12.531159],[-73.886792,-12.405397],[-73.965859,-12.336451],[-73.980452,-12.242588],[-73.923837,-12.224749],[-73.84325,-12.23943],[-73.801894,-12.220297],[-73.736941,-12.266787],[-73.707814,-12.267907],[-73.63715,-12.378368],[-73.590465,-12.376944],[-73.574326,-12.276842],[-73.469648,-12.219966],[-73.446061,-12.160289],[-73.361887,-12.135965],[-73.407689,-12.06599],[-73.397885,-12.020943],[-73.437694,-11.989632],[-73.441135,-11.9442],[-73.490532,-11.87817],[-73.577505,-11.836485],[-73.574481,-11.734145],[-73.60827,-11.66016],[-73.559651,-11.592051],[-73.449728,-11.531943],[-73.479716,-11.471364],[-73.419749,-11.383938],[-73.331331,-11.311265],[-73.257446,-11.312709],[-73.203301,-11.28999],[-73.137374,-11.293773],[-73.026509,-11.264085],[-72.989665,-11.198797],[-72.968584,-11.264121],[-72.939126,-11.282078],[-72.951909,-11.33063],[-72.897019,-11.357926],[-72.794294,-11.384291],[-72.738238,-11.347429],[-72.706561,-11.381505],[-72.609987,-11.428238],[-72.535086,-11.43508],[-72.479868,-11.387421],[-72.37883,-11.332639],[-72.307709,-11.307],[-72.239258,-11.345061],[-72.247894,-11.385006],[-72.292551,-11.433273],[-72.315508,-11.595577],[-72.428739,-11.708972],[-72.370768,-11.784967],[-72.391302,-11.826346],[-72.332154,-11.855527],[-72.347514,-11.891267],[-72.337466,-11.968075],[-72.284551,-11.97643],[-72.259303,-12.006303],[-72.268933,-12.054375],[-72.173733,-12.05981],[-72.094447,-12.085191],[-72.087559,-12.14269],[-72.105512,-12.23806],[-72.033841,-12.265045],[-71.973031,-12.320543],[-71.976013,-12.398783],[-72.061489,-12.440449],[-72.071132,-12.511484],[-72.031459,-12.524773],[-71.981396,-12.58049],[-71.956381,-12.654873],[-71.978595,-12.683331],[-71.881615,-12.730439],[-71.810592,-12.744978],[-71.746941,-12.796107],[-71.694969,-12.738793],[-71.600298,-12.700058],[-71.552133,-12.709302],[-71.451047,-12.824969],[-71.415244,-12.894259],[-71.354938,-12.883979],[-71.30101,-12.940695],[-71.238754,-12.971934],[-71.173042,-12.983335],[-71.168182,-13.094089],[-71.122012,-13.233529],[-71.040945,-13.26875],[-70.974521,-13.168286],[-70.921393,-13.110831],[-70.842961,-13.067048],[-70.758413,-13.108044],[-70.659756,-13.088459],[-70.58754,-13.10313],[-70.549847,-13.152864],[-70.464248,-13.159691],[-70.388467,-13.192389],[-70.420408,-13.25857],[-70.392836,-13.314161],[-70.400073,-13.371739],[-70.44255,-13.39336],[-70.452618,-13.447918],[-70.534032,-13.52527],[-70.541724,-13.574489],[-70.616191,-13.609062],[-70.653913,-13.655936],[-70.715129,-13.662254],[-70.734747,-13.739017],[-70.698858,-13.803168],[-70.721361,-13.829342],[-70.768375,-13.814332],[-70.831273,-13.858932],[-70.833039,-13.9381],[-70.861814,-14.026228],[-70.795883,-14.072119],[-70.80893,-14.124199],[-70.86683,-14.16908],[-70.899349,-14.229302],[-70.880581,-14.270882],[-70.912968,-14.32758],[-70.962577,-14.361845],[-70.985821,-14.406726],[-70.962503,-14.444817],[-70.996728,-14.505692],[-71.00145,-14.572215],[-71.113676,-14.666732],[-71.05324,-14.75433],[-71.013093,-14.739694],[-70.975483,-14.764134],[-70.993835,-14.829164],[-70.98474,-14.946068],[-71.00405,-14.971877],[-70.976231,-15.175642],[-70.962502,-15.215637],[-70.985281,-15.24903],[-70.952299,-15.289843],[-71.012277,-15.343752],[-71.038971,-15.405166],[-71.071747,-15.449273],[-71.174332,-15.424457],[-71.151154,-15.363941],[-71.165398,-15.288882],[-71.201836,-15.245445],[-71.160329,-15.207768],[-71.180389,-15.16262],[-71.143578,-15.120561],[-71.20684,-15.071889],[-71.260225,-15.076908],[-71.315628,-15.120225],[-71.37268,-15.07911],[-71.430817,-14.998084],[-71.50705,-14.976275],[-71.48587,-15.059105],[-71.511711,-15.079448],[-71.570627,-15.061207],[-71.587601,-15.125595],[-71.636024,-15.139139],[-71.667953,-15.091896],[-71.802956,-15.067441],[-71.767456,-15.010524],[-71.74596,-14.93987],[-71.797623,-14.895982],[-71.852089,-14.88809],[-71.89005,-14.790873],[-71.924004,-14.789797],[-71.958633,-14.728016],[-71.941215,-14.685325],[-71.987915,-14.63295],[-72.041862,-14.694371],[-72.034256,-14.81199],[-72.047127,-14.875063],[-72.128693,-14.830602],[-72.144699,-14.777713],[-72.252289,-14.803659],[-72.315445,-14.833863],[-72.406479,-14.827085],[-72.470947,-14.774775],[-72.48613,-14.712543],[-72.471771,-14.661399]],[[-71.24459,-14.483272],[-71.16986,-14.523698],[-71.156514,-14.5],[-71.248167,-14.438879],[-71.24459,-14.483272]]]}},{"type":"Feature","id":"10512","properties":{"name":"HUANCAVELICA","density":0,"path":"/world/Peru/HUANCAVELICA"},"geometry":{"type":"Polygon","coordinates":[[[-75.05905,-14.12962],[-75.108842,-14.032885],[-75.16568,-14.07253],[-75.258529,-14.043166],[-75.232329,-14.00477],[-75.333228,-14.015984],[-75.433816,-13.9139],[-75.545502,-13.889482],[-75.563377,-13.840869],[-75.524878,-13.817899],[-75.541533,-13.781441],[-75.51591,-13.696393],[-75.484869,-13.650972],[-75.514007,-13.617092],[-75.47731,-13.525484],[-75.465775,-13.43216],[-75.502916,-13.36595],[-75.538918,-13.405012],[-75.585122,-13.402668],[-75.689281,-13.43967],[-75.712163,-13.41642],[-75.805985,-13.401433],[-75.790205,-13.34251],[-75.706481,-13.288287],[-75.706337,-13.186762],[-75.693774,-13.147504],[-75.718768,-13.109765],[-75.694962,-13.074792],[-75.628608,-13.057067],[-75.614393,-12.964933],[-75.636125,-12.916175],[-75.613092,-12.866975],[-75.531082,-12.822208],[-75.5075,-12.777155],[-75.576551,-12.715142],[-75.551818,-12.681427],[-75.579613,-12.641484],[-75.538744,-12.621694],[-75.490854,-12.647937],[-75.417854,-12.628974],[-75.362391,-12.5396],[-75.278359,-12.46783],[-75.215515,-12.463421],[-75.215254,-12.394843],[-75.14023,-12.3421],[-75.071628,-12.235203],[-75.048327,-12.17033],[-75.074607,-12.060147],[-75.047053,-12.011564],[-74.930374,-12.022858],[-74.837374,-12.070818],[-74.74861,-12.04142],[-74.7169,-12.05942],[-74.659108,-11.995782],[-74.624165,-11.985182],[-74.455536,-12.033579],[-74.41952,-12.093776],[-74.352384,-12.147765],[-74.345946,-12.173737],[-74.38886,-12.19267],[-74.38481,-12.26863],[-74.552117,-12.28734],[-74.581177,-12.332669],[-74.50354,-12.44981],[-74.42245,-12.44521],[-74.41512,-12.49066],[-74.34082,-12.63446],[-74.32753,-12.68127],[-74.34877,-12.71243],[-74.2892,-12.75801],[-74.2924,-12.82476],[-74.32963,-12.83615],[-74.327673,-12.928391],[-74.296553,-12.935009],[-74.270165,-13.02555],[-74.310349,-13.059606],[-74.345876,-13.025845],[-74.38623,-13.02931],[-74.40801,-13.06927],[-74.420426,-13.159539],[-74.458439,-13.190038],[-74.544473,-13.199394],[-74.570981,-13.18467],[-74.644654,-13.274137],[-74.69946,-13.36351],[-74.763863,-13.341393],[-74.86875,-13.3599],[-74.89772,-13.39531],[-74.9021,-13.46644],[-74.86218,-13.48179],[-74.79957,-13.54747],[-74.771388,-13.606499],[-74.781151,-13.648184],[-74.754385,-13.733967],[-74.775078,-13.803799],[-74.760364,-13.831487],[-74.785923,-13.928788],[-74.767955,-13.978552],[-74.783883,-14.016945],[-74.770287,-14.089793],[-74.841385,-14.073402],[-74.942361,-14.094687],[-75.02913,-14.07195],[-75.05905,-14.12962]]]}},{"type":"Feature","id":"10513","properties":{"name":"HUANUCO","density":0,"path":"/world/Peru/HUANUCO"},"geometry":{"type":"Polygon","coordinates":[[[-77.317486,-8.530152],[-77.264078,-8.467531],[-77.204213,-8.485691],[-77.133844,-8.440021],[-77.088879,-8.482822],[-77.091651,-8.516981],[-77.049801,-8.553715],[-76.916298,-8.57016],[-76.847267,-8.546482],[-76.831584,-8.516655],[-76.697271,-8.532408],[-76.624316,-8.511953],[-76.542687,-8.509711],[-76.466167,-8.569743],[-76.443954,-8.488792],[-76.416801,-8.443437],[-76.333468,-8.429474],[-76.324185,-8.524135],[-76.278465,-8.577461],[-76.266683,-8.655047],[-76.230154,-8.796295],[-76.166439,-8.756414],[-76.115926,-8.657574],[-76.130441,-8.467211],[-76.087176,-8.336906],[-75.984963,-8.32215],[-75.945984,-8.400875],[-75.964906,-8.451742],[-75.966314,-8.592027],[-75.97976,-8.636002],[-75.94575,-8.716139],[-75.921646,-8.780809],[-75.917297,-8.879238],[-75.874352,-8.970254],[-75.875861,-9.021459],[-75.806465,-9.121486],[-75.794113,-9.188365],[-75.731758,-9.272266],[-75.670838,-9.396644],[-75.562445,-9.400172],[-75.494391,-9.377355],[-75.452101,-9.296723],[-75.328941,-9.297029],[-75.282723,-9.309832],[-75.26233,-9.270367],[-75.209715,-9.229943],[-75.210602,-9.159137],[-75.23758,-9.106771],[-75.181016,-9.080998],[-75.150986,-9.038717],[-75.143303,-8.972193],[-75.094369,-8.922299],[-75.045562,-8.904217],[-74.978859,-8.952039],[-74.934164,-8.930225],[-74.940712,-8.857893],[-74.850558,-8.756891],[-74.846683,-8.661235],[-74.797527,-8.631712],[-74.617816,-8.548719],[-74.547135,-8.584567],[-74.525351,-8.749316],[-74.532178,-8.776133],[-74.60892,-8.820228],[-74.644311,-8.918783],[-74.651366,-9.048768],[-74.678094,-9.094039],[-74.640709,-9.118564],[-74.639564,-9.159682],[-74.589439,-9.303176],[-74.674309,-9.394473],[-74.677103,-9.428324],[-74.727699,-9.469969],[-74.750523,-9.524607],[-74.73517,-9.572707],[-74.807039,-9.686576],[-74.804426,-9.729822],[-74.849352,-9.748301],[-74.897668,-9.737111],[-74.943103,-9.761102],[-74.999442,-9.838454],[-75.059881,-9.819693],[-75.108398,-9.846254],[-75.160125,-9.839975],[-75.240751,-9.785835],[-75.30307,-9.783622],[-75.275822,-9.849764],[-75.287938,-9.870278],[-75.369356,-9.870833],[-75.395655,-9.91396],[-75.475729,-9.973958],[-75.548641,-9.983608],[-75.590327,-9.952473],[-75.60859,-10.02287],[-75.6749,-10.04708],[-75.70311,-10.13304],[-75.70397,-10.20669],[-75.7856,-10.25237],[-75.84013,-10.25827],[-75.8564,-10.30171],[-75.92441,-10.35603],[-75.92515,-10.40676],[-75.97581,-10.479336],[-76.057641,-10.465152],[-76.078829,-10.434014],[-76.130486,-10.42973],[-76.223039,-10.374883],[-76.271121,-10.371096],[-76.30931,-10.40562],[-76.33579,-10.28632],[-76.472804,-10.337768],[-76.490941,-10.378896],[-76.647197,-10.415139],[-76.69682,-10.442486],[-76.725054,-10.485715],[-76.770041,-10.464799],[-76.808334,-10.392965],[-76.856394,-10.377266],[-76.906246,-10.274186],[-76.915465,-10.119914],[-76.808422,-10.084846],[-76.825615,-9.989293],[-76.813676,-9.961572],[-76.895211,-9.815602],[-76.901383,-9.770496],[-76.970394,-9.711488],[-76.986506,-9.749105],[-77.048488,-9.647461],[-76.995271,-9.603443],[-76.93801,-9.526578],[-76.952334,-9.469697],[-76.935236,-9.398549],[-76.842295,-9.261734],[-76.814375,-9.326008],[-76.757488,-9.362197],[-76.725744,-9.256635],[-76.733734,-9.208967],[-76.78858,-9.136238],[-76.980102,-9.062918],[-77.037187,-8.999289],[-77.109797,-8.970205],[-77.131633,-8.915625],[-77.164836,-8.889098],[-77.246295,-8.702348],[-77.260596,-8.648521],[-77.29485,-8.632934],[-77.289027,-8.589305],[-77.317486,-8.530152]]]}},{"type":"Feature","id":"10514","properties":{"name":"ICA","density":0,"path":"/world/Peru/ICA"},"geometry":{"type":"Polygon","coordinates":[[[-74.762299,-15.098055],[-74.815918,-15.139498],[-74.870602,-15.151229],[-74.939865,-15.206012],[-74.968201,-15.299422],[-75.00388,-15.33023],[-75.049652,-15.434504],[-75.073326,-15.442942],[-75.082568,-15.423691],[-75.185894,-15.367238],[-75.168818,-15.307391],[-75.230623,-15.277201],[-75.216625,-15.231416],[-75.27468,-15.16832],[-75.36865,-15.140795],[-75.442693,-15.000592],[-75.5,-14.966975],[-75.502445,-14.918717],[-75.574521,-14.867797],[-75.679941,-14.817822],[-75.784355,-14.748289],[-75.855566,-14.716281],[-75.916465,-14.659176],[-75.932047,-14.568281],[-75.974197,-14.525254],[-75.972279,-14.470498],[-76.03924,-14.424309],[-76.066195,-14.386943],[-76.131859,-14.354264],[-76.109949,-14.292686],[-76.14357,-14.227621],[-76.230525,-14.149119],[-76.290195,-14.161512],[-76.266451,-14.014691],[-76.282516,-13.918049],[-76.330012,-13.925025],[-76.396328,-13.908898],[-76.371291,-13.808881],[-76.296225,-13.793469],[-76.300771,-13.837723],[-76.260963,-13.865602],[-76.19766,-13.640877],[-76.187441,-13.565816],[-76.191469,-13.423934],[-76.244793,-13.323514],[-76.20732,-13.3061],[-76.155971,-13.193729],[-76.011937,-13.085499],[-75.937683,-12.991325],[-75.802062,-13.06043],[-75.762158,-13.018889],[-75.725464,-13.038125],[-75.670361,-13.022612],[-75.614393,-12.964933],[-75.628608,-13.057067],[-75.694962,-13.074792],[-75.718768,-13.109765],[-75.693774,-13.147504],[-75.706337,-13.186762],[-75.706481,-13.288287],[-75.790205,-13.34251],[-75.805985,-13.401433],[-75.712163,-13.41642],[-75.689281,-13.43967],[-75.585122,-13.402668],[-75.538918,-13.405012],[-75.502916,-13.36595],[-75.465775,-13.43216],[-75.47731,-13.525484],[-75.514007,-13.617092],[-75.484869,-13.650972],[-75.51591,-13.696393],[-75.541533,-13.781441],[-75.524878,-13.817899],[-75.563377,-13.840869],[-75.545502,-13.889482],[-75.433816,-13.9139],[-75.333228,-14.015984],[-75.232329,-14.00477],[-75.258529,-14.043166],[-75.16568,-14.07253],[-75.108842,-14.032885],[-75.05905,-14.12962],[-75.090795,-14.215178],[-75.039979,-14.277879],[-75.093927,-14.312424],[-75.138049,-14.414656],[-75.101266,-14.433199],[-75.098138,-14.485097],[-75.069097,-14.526934],[-75.0599,-14.622618],[-74.95892,-14.606451],[-74.895418,-14.54508],[-74.852772,-14.611809],[-74.845742,-14.707979],[-74.802697,-14.752152],[-74.756007,-14.771131],[-74.746244,-14.843555],[-74.69384,-14.838155],[-74.663451,-14.907934],[-74.664267,-15.044696],[-74.762299,-15.098055]]]}},{"type":"Feature","id":"10515","properties":{"name":"JUNIN","density":0,"path":"/world/Peru/JUNIN"},"geometry":{"type":"Polygon","coordinates":[[[-74.572995,-10.912602],[-74.508384,-10.9503],[-74.500081,-10.995998],[-74.44541,-11.004852],[-74.373655,-11.056522],[-74.256436,-11.018223],[-74.201475,-11.019664],[-74.091778,-10.986815],[-74.005498,-10.993193],[-73.978738,-11.070033],[-73.978272,-11.120627],[-73.861304,-11.14553],[-73.866573,-11.037353],[-73.85411,-10.954906],[-73.823407,-10.921073],[-73.814217,-10.799896],[-73.7572,-10.735905],[-73.696193,-10.773029],[-73.610396,-10.846574],[-73.560261,-10.860609],[-73.571491,-10.958094],[-73.542579,-11.047424],[-73.482603,-11.065242],[-73.450099,-11.224749],[-73.46011,-11.302711],[-73.484087,-11.319344],[-73.419749,-11.383938],[-73.479716,-11.471364],[-73.449728,-11.531943],[-73.559651,-11.592051],[-73.60827,-11.66016],[-73.574481,-11.734145],[-73.577505,-11.836485],[-73.490532,-11.87817],[-73.441135,-11.9442],[-73.437694,-11.989632],[-73.397885,-12.020943],[-73.407689,-12.06599],[-73.361887,-12.135965],[-73.446061,-12.160289],[-73.469648,-12.219966],[-73.574326,-12.276842],[-73.590465,-12.376944],[-73.63715,-12.378368],[-73.707814,-12.267907],[-73.736941,-12.266787],[-73.801894,-12.220297],[-73.84325,-12.23943],[-73.923837,-12.224749],[-73.980452,-12.242588],[-74.098357,-12.284914],[-74.121439,-12.333601],[-74.187618,-12.314376],[-74.270516,-12.239145],[-74.321873,-12.229777],[-74.345946,-12.173737],[-74.352384,-12.147765],[-74.41952,-12.093776],[-74.455536,-12.033579],[-74.624165,-11.985182],[-74.659108,-11.995782],[-74.7169,-12.05942],[-74.74861,-12.04142],[-74.837374,-12.070818],[-74.930374,-12.022858],[-75.047053,-12.011564],[-75.074607,-12.060147],[-75.048327,-12.17033],[-75.071628,-12.235203],[-75.14023,-12.3421],[-75.215254,-12.394843],[-75.215515,-12.463421],[-75.278359,-12.46783],[-75.362391,-12.5396],[-75.417854,-12.628974],[-75.490854,-12.647937],[-75.538744,-12.621694],[-75.579613,-12.641484],[-75.571841,-12.564068],[-75.536201,-12.517275],[-75.557408,-12.45659],[-75.564096,-12.336289],[-75.664124,-12.194054],[-75.637756,-12.114185],[-75.694305,-12.042691],[-75.765663,-12.059627],[-75.824074,-12.015687],[-75.925991,-11.984294],[-76.014254,-11.98433],[-76.052585,-11.948236],[-76.051311,-11.892238],[-76.136945,-11.780957],[-76.202328,-11.728049],[-76.204883,-11.659531],[-76.187707,-11.59279],[-76.223705,-11.562733],[-76.286789,-11.591233],[-76.371665,-11.505213],[-76.379456,-11.443708],[-76.431748,-11.345562],[-76.477696,-11.293529],[-76.492077,-11.189314],[-76.518402,-11.116078],[-76.491213,-11.089441],[-76.397217,-11.075762],[-76.31807,-11.091643],[-76.3079,-11.132664],[-76.26294,-11.1496],[-76.24117,-11.06112],[-76.278859,-10.923451],[-76.259846,-10.921432],[-76.248016,-10.933182],[-76.24817,-10.938643],[-76.23683,-10.957848],[-76.17633,-11.044215],[-76.114394,-11.1095],[-76.029656,-11.087197],[-76.01191,-11.046021],[-76.071021,-10.976029],[-76.12293,-10.96264],[-76.09134,-10.90656],[-76.04448,-10.87952],[-75.992672,-10.820985],[-75.922752,-10.883146],[-75.858259,-10.867857],[-75.838381,-10.886299],[-75.78599,-10.82456],[-75.732372,-10.809192],[-75.69342,-10.834199],[-75.589667,-10.810898],[-75.57382,-10.746991],[-75.49025,-10.75683],[-75.459529,-10.785949],[-75.480761,-10.849783],[-75.465222,-10.901127],[-75.406376,-10.856126],[-75.317304,-10.863567],[-75.26236,-10.82529],[-75.24405,-10.76695],[-75.191017,-10.715708],[-75.119805,-10.73022],[-75.074316,-10.66581],[-75.016659,-10.677134],[-74.979258,-10.746887],[-74.956482,-10.732791],[-74.893308,-10.769133],[-74.831311,-10.780504],[-74.791803,-10.831125],[-74.760363,-10.82511],[-74.707947,-10.858132],[-74.649298,-10.867071],[-74.614102,-10.904625],[-74.572995,-10.912602]]]}},{"type":"Feature","id":"10516","properties":{"name":"LA LIBERTAD","density":0,"path":"/world/Peru/LA LIBERTAD"},"geometry":{"type":"Polygon","coordinates":[[[-78.644924,-8.969228],[-78.651662,-8.914355],[-78.761158,-8.773957],[-78.737383,-8.712084],[-78.743826,-8.63383],[-78.778008,-8.569412],[-78.934885,-8.436324],[-78.896365,-8.378926],[-78.957553,-8.293523],[-78.986088,-8.212361],[-79.115566,-8.096662],[-79.119199,-8.072494],[-79.307291,-7.925971],[-79.375746,-7.842098],[-79.392426,-7.787809],[-79.465707,-7.711934],[-79.435289,-7.693359],[-79.449093,-7.647075],[-79.540876,-7.521256],[-79.588477,-7.414098],[-79.569539,-7.389988],[-79.609801,-7.266588],[-79.690621,-7.177127],[-79.496387,-6.971711],[-79.455005,-6.946314],[-79.400762,-6.956928],[-79.322586,-7.025684],[-79.305301,-7.147146],[-79.267275,-7.192394],[-79.282627,-7.275061],[-79.347131,-7.336637],[-79.293119,-7.347261],[-79.256334,-7.381864],[-79.188175,-7.395413],[-79.152724,-7.43982],[-79.065428,-7.472709],[-79.041232,-7.599887],[-78.992149,-7.660949],[-78.96086,-7.657833],[-78.944344,-7.598418],[-78.895908,-7.537437],[-78.886685,-7.484102],[-78.841619,-7.437617],[-78.760125,-7.401984],[-78.662467,-7.412998],[-78.629843,-7.4455],[-78.649596,-7.529017],[-78.624572,-7.548559],[-78.491393,-7.554873],[-78.415633,-7.48507],[-78.359984,-7.500394],[-78.356792,-7.574006],[-78.382819,-7.630107],[-78.330139,-7.699628],[-78.302803,-7.696463],[-78.272421,-7.753518],[-78.224653,-7.759331],[-78.116053,-7.654007],[-78.081221,-7.696169],[-77.998642,-7.679074],[-77.870437,-7.58533],[-77.844168,-7.514381],[-77.741372,-7.466695],[-77.771986,-7.418458],[-77.813445,-7.39254],[-77.83105,-7.310031],[-77.880905,-7.221387],[-77.897869,-7.166807],[-77.999506,-6.970532],[-77.927528,-6.986709],[-77.880342,-6.962504],[-77.845865,-6.976398],[-77.758934,-6.964508],[-77.713379,-7.107887],[-77.643534,-7.149001],[-77.60553,-7.219162],[-77.646746,-7.24074],[-77.628646,-7.320024],[-77.635709,-7.357446],[-77.610271,-7.434858],[-77.526918,-7.504839],[-77.536705,-7.582281],[-77.484529,-7.699714],[-77.527777,-7.757583],[-77.479834,-7.803292],[-77.442861,-7.813642],[-77.406783,-7.902493],[-77.376909,-7.908821],[-77.40713,-7.991986],[-77.385473,-8.055387],[-77.292256,-8.060089],[-77.238289,-8.013324],[-77.150535,-8.032043],[-77.118324,-8.025244],[-77.019562,-8.052687],[-76.986723,-8.111225],[-76.906998,-8.170736],[-76.925597,-8.218497],[-76.901243,-8.283466],[-76.913745,-8.32609],[-76.976481,-8.395944],[-77.08548,-8.406223],[-77.133844,-8.440021],[-77.204213,-8.485691],[-77.264078,-8.467531],[-77.317486,-8.530152],[-77.400338,-8.481967],[-77.438896,-8.419862],[-77.458896,-8.335656],[-77.557217,-8.193732],[-77.605687,-8.154811],[-77.63652,-8.106192],[-77.647111,-8.050281],[-77.71943,-8.073445],[-77.810441,-8.067735],[-77.897904,-8.076016],[-77.933213,-8.19701],[-78.018635,-8.224316],[-78.11595,-8.3101],[-78.137498,-8.368668],[-78.139469,-8.427832],[-78.173656,-8.503537],[-78.216879,-8.556918],[-78.193525,-8.600111],[-78.246135,-8.658363],[-78.35481,-8.673279],[-78.448228,-8.736927],[-78.518139,-8.752981],[-78.565343,-8.792599],[-78.588281,-8.858677],[-78.591662,-8.945999],[-78.644924,-8.969228]]]}},{"type":"Feature","id":"10517","properties":{"name":"LAMBAYEQUE","density":0,"path":"/world/Peru/LAMBAYEQUE"},"geometry":{"type":"Polygon","coordinates":[[[-80.627133,-6.37208],[-80.376219,-6.006969],[-80.327414,-5.947441],[-80.198914,-5.893],[-80.130863,-5.888666],[-79.99483,-5.751945],[-79.969037,-5.582211],[-79.945873,-5.514996],[-79.903055,-5.491449],[-79.853986,-5.531818],[-79.86442,-5.56342],[-79.832935,-5.64549],[-79.786934,-5.646588],[-79.717281,-5.739348],[-79.737328,-5.83765],[-79.682711,-5.846445],[-79.631428,-5.829029],[-79.62642,-5.887449],[-79.600449,-5.93957],[-79.498939,-5.915189],[-79.418609,-5.9701],[-79.264342,-6.00246],[-79.223995,-6.055007],[-79.272529,-6.146731],[-79.252261,-6.226688],[-79.321789,-6.263058],[-79.353561,-6.304291],[-79.422658,-6.31043],[-79.45349,-6.396842],[-79.422888,-6.451882],[-79.431293,-6.479724],[-79.403275,-6.540732],[-79.366989,-6.549522],[-79.296416,-6.675672],[-79.22906,-6.671406],[-79.213791,-6.695631],[-79.141562,-6.701542],[-79.120848,-6.77697],[-79.26274,-6.859156],[-79.311009,-6.901342],[-79.296634,-6.999834],[-79.322586,-7.025684],[-79.400762,-6.956928],[-79.455005,-6.946314],[-79.496387,-6.971711],[-79.690621,-7.177127],[-79.683467,-7.124896],[-79.739838,-7.057541],[-79.931846,-6.873306],[-79.939713,-6.827033],[-79.986029,-6.747053],[-80.074887,-6.675523],[-80.17732,-6.606037],[-80.288643,-6.543082],[-80.627133,-6.37208]]]}},{"type":"Feature","id":"10518","properties":{"name":"LIMA","density":0,"path":"/world/Peru/LIMA"},"geometry":{"type":"Polygon","coordinates":[[[-76.906246,-10.274186],[-76.856394,-10.377266],[-76.808334,-10.392965],[-76.770041,-10.464799],[-76.725054,-10.485715],[-76.701788,-10.593545],[-76.655655,-10.646782],[-76.659381,-10.688253],[-76.633486,-10.784528],[-76.580583,-10.866906],[-76.565077,-10.966179],[-76.580162,-11.010842],[-76.531303,-11.036064],[-76.491213,-11.089441],[-76.518402,-11.116078],[-76.492077,-11.189314],[-76.477696,-11.293529],[-76.431748,-11.345562],[-76.379456,-11.443708],[-76.371665,-11.505213],[-76.286789,-11.591233],[-76.223705,-11.562733],[-76.187707,-11.59279],[-76.204883,-11.659531],[-76.202328,-11.728049],[-76.136945,-11.780957],[-76.051311,-11.892238],[-76.052585,-11.948236],[-76.014254,-11.98433],[-75.925991,-11.984294],[-75.824074,-12.015687],[-75.765663,-12.059627],[-75.694305,-12.042691],[-75.637756,-12.114185],[-75.664124,-12.194054],[-75.564096,-12.336289],[-75.557408,-12.45659],[-75.536201,-12.517275],[-75.571841,-12.564068],[-75.579613,-12.641484],[-75.551818,-12.681427],[-75.576551,-12.715142],[-75.5075,-12.777155],[-75.531082,-12.822208],[-75.613092,-12.866975],[-75.636125,-12.916175],[-75.614393,-12.964933],[-75.670361,-13.022612],[-75.725464,-13.038125],[-75.762158,-13.018889],[-75.802062,-13.06043],[-75.937683,-12.991325],[-76.011937,-13.085499],[-76.155971,-13.193729],[-76.20732,-13.3061],[-76.244793,-13.323514],[-76.434211,-13.090332],[-76.489783,-13.031846],[-76.513807,-12.952092],[-76.505787,-12.925814],[-76.529861,-12.839668],[-76.635684,-12.743338],[-76.672434,-12.627775],[-76.746758,-12.539121],[-76.799309,-12.50908],[-76.775041,-12.437871],[-76.777361,-12.394062],[-76.836027,-12.317412],[-76.935469,-12.250221],[-77.037709,-12.204084],[-77.031027,-12.134027],[-77.111533,-12.079492],[-77.08294,-12.036418],[-77.11755,-11.95697],[-77.089904,-11.901787],[-77.126048,-11.820788],[-77.187098,-11.828361],[-77.168166,-11.739109],[-77.216037,-11.638969],[-77.280031,-11.587447],[-77.304752,-11.512234],[-77.372168,-11.452586],[-77.498143,-11.377154],[-77.642924,-11.304477],[-77.641654,-11.21451],[-77.59235,-11.18208],[-77.633416,-11.054508],[-77.66175,-11.012654],[-77.657828,-10.946506],[-77.750184,-10.81774],[-77.744035,-10.794537],[-77.810656,-10.699894],[-77.886271,-10.61192],[-77.832989,-10.567483],[-77.771376,-10.571615],[-77.772443,-10.512478],[-77.796178,-10.483293],[-77.760212,-10.430221],[-77.752922,-10.322154],[-77.692391,-10.320902],[-77.597593,-10.380364],[-77.68392,-10.431386],[-77.736781,-10.563212],[-77.64426,-10.527409],[-77.64073,-10.596272],[-77.57665,-10.583748],[-77.586372,-10.646945],[-77.577174,-10.72857],[-77.49496,-10.746103],[-77.41543,-10.72998],[-77.39531,-10.66154],[-77.310629,-10.567691],[-77.251871,-10.545242],[-77.190988,-10.552133],[-77.174625,-10.464602],[-77.110986,-10.403342],[-77.071612,-10.338104],[-77.024712,-10.327527],[-77.00672,-10.284232],[-76.965451,-10.305379],[-76.906246,-10.274186]]]}},{"type":"Feature","id":"10519","properties":{"name":"LORETO","density":0,"path":"/world/Peru/LORETO"},"geometry":{"type":"Polygon","coordinates":[[[-73.983033,-7.534361],[-74.0338,-7.484865],[-74.039966,-7.448155],[-74.138389,-7.396352],[-74.180857,-7.358747],[-74.259025,-7.344052],[-74.316232,-7.35127],[-74.462652,-7.298941],[-74.501769,-7.266078],[-74.535727,-7.294427],[-74.579521,-7.409929],[-74.616074,-7.435038],[-74.642902,-7.500086],[-74.643144,-7.562285],[-74.57082,-7.668488],[-74.584032,-7.698494],[-74.557889,-7.748482],[-74.515718,-7.777173],[-74.569745,-7.81598],[-74.627984,-7.939828],[-74.727944,-7.981009],[-74.771256,-8.036063],[-74.896438,-8.081268],[-74.98226,-7.968986],[-75.03335,-7.950055],[-75.142491,-7.978641],[-75.184338,-8.016602],[-75.214572,-8.127144],[-75.243885,-8.155518],[-75.287803,-8.125513],[-75.376147,-8.138777],[-75.430096,-8.166598],[-75.471465,-8.252073],[-75.502877,-8.289412],[-75.504059,-8.348841],[-75.435324,-8.393113],[-75.44079,-8.436833],[-75.54662,-8.466502],[-75.599063,-8.411978],[-75.648131,-8.409752],[-75.70701,-8.439325],[-75.71647,-8.487328],[-75.778681,-8.493853],[-75.779639,-8.547415],[-75.833387,-8.652289],[-75.891852,-8.661568],[-75.94575,-8.716139],[-75.97976,-8.636002],[-75.966314,-8.592027],[-75.964906,-8.451742],[-75.945984,-8.400875],[-75.984963,-8.32215],[-75.934889,-8.311552],[-75.913362,-8.254387],[-75.941165,-8.186184],[-75.949593,-8.099233],[-75.917006,-8.071776],[-75.844933,-8.059638],[-75.829493,-7.973496],[-75.859386,-7.921169],[-75.966979,-7.960359],[-76.043803,-7.792344],[-76.101593,-7.722664],[-76.091374,-7.560356],[-76.166145,-7.494307],[-76.214551,-7.404521],[-76.196038,-7.333528],[-76.213111,-7.310143],[-76.166661,-7.267596],[-76.143525,-7.203962],[-76.059945,-7.161301],[-76.010717,-7.07838],[-76.010791,-6.996536],[-76.051463,-6.944296],[-76.010529,-6.893611],[-76.051043,-6.810923],[-75.963652,-6.788423],[-75.843875,-6.797262],[-75.768429,-6.853818],[-75.697699,-6.868603],[-75.668097,-6.826417],[-75.633442,-6.843062],[-75.511802,-6.78557],[-75.501233,-6.767046],[-75.500228,-6.640322],[-75.509597,-6.492141],[-75.550095,-6.347708],[-75.490311,-6.267036],[-75.487188,-6.203415],[-75.525555,-6.165126],[-75.532794,-6.095599],[-75.571105,-6.003988],[-75.613894,-6.02324],[-75.62896,-6.08212],[-75.68037,-6.09563],[-75.71502,-6.13827],[-75.81483,-6.1009],[-75.834451,-6.139095],[-75.930798,-6.136649],[-75.965435,-6.095198],[-76.032103,-6.099664],[-76.127211,-6.176705],[-76.223631,-6.166031],[-76.273241,-6.104386],[-76.318297,-6.086095],[-76.372787,-5.97376],[-76.412269,-5.950664],[-76.548453,-6.022455],[-76.640011,-6.002605],[-76.747697,-6.003643],[-76.746728,-5.954028],[-76.818051,-5.862145],[-76.835451,-5.745555],[-76.888218,-5.748411],[-76.961353,-5.706077],[-76.995606,-5.667119],[-77.04173,-5.674708],[-77.231941,-5.595461],[-77.338318,-5.603473],[-77.370074,-5.569556],[-77.408729,-5.58916],[-77.461943,-5.58414],[-77.517399,-5.466748],[-77.558119,-5.425578],[-77.581669,-5.461176],[-77.670364,-5.409645],[-77.695958,-5.411053],[-77.682066,-5.338396],[-77.69308,-5.267685],[-77.73956,-5.212597],[-77.695978,-5.16366],[-77.774287,-5.097178],[-77.822277,-5.081793],[-77.82462,-5.031779],[-77.75929,-4.951781],[-77.760152,-4.909345],[-77.793575,-4.849963],[-77.794622,-4.763007],[-77.771879,-4.717559],[-77.671945,-4.629468],[-77.655457,-4.518545],[-77.585943,-4.475013],[-77.565387,-4.372462],[-77.585551,-4.251334],[-77.549656,-4.109893],[-77.538123,-4.028708],[-77.541773,-3.943334],[-77.569405,-3.87275],[-77.651822,-3.77901],[-77.615623,-3.707719],[-77.616936,-3.634302],[-77.760539,-3.459803],[-77.776479,-3.409131],[-77.778525,-3.187176],[-77.808616,-2.986125],[-77.156984,-2.767845],[-76.631865,-2.589689],[-76.044989,-2.128043],[-75.580934,-1.546367],[-75.538963,-1.483474],[-75.403898,-1.000084],[-75.3867,-0.929739],[-75.322033,-0.974777],[-75.216238,-0.970834],[-75.221172,-0.865763],[-75.272469,-0.735396],[-75.23587,-0.64727],[-75.2276,-0.55143],[-75.277745,-0.498413],[-75.312758,-0.494241],[-75.38752,-0.43433],[-75.46273,-0.31843],[-75.48222,-0.23696],[-75.53077,-0.1809],[-75.610551,-0.191123],[-75.610496,-0.113355],[-75.56361,-0.1312],[-75.505625,-0.117942],[-75.405129,-0.170268],[-75.306241,-0.155418],[-75.259772,-0.127948],[-75.183596,-0.038606],[-75.077363,-0.084205],[-75.016891,-0.145686],[-74.972801,-0.153525],[-74.932083,-0.217789],[-74.848087,-0.233584],[-74.813912,-0.192248],[-74.762712,-0.22479],[-74.730389,-0.292918],[-74.731141,-0.339181],[-74.668641,-0.373754],[-74.574716,-0.395033],[-74.529549,-0.465133],[-74.421337,-0.504523],[-74.366439,-0.610448],[-74.372826,-0.652887],[-74.26815,-0.84701],[-74.278297,-0.899855],[-74.267218,-0.982356],[-74.223404,-1.007361],[-74.168358,-1.006329],[-74.094261,-1.048012],[-74.046201,-1.04482],[-74.015074,-1.086476],[-73.9478,-1.132109],[-73.913738,-1.12003],[-73.857133,-1.231779],[-73.680932,-1.238021],[-73.619949,-1.261314],[-73.612972,-1.315491],[-73.531636,-1.435006],[-73.528824,-1.46467],[-73.478568,-1.522094],[-73.501168,-1.619152],[-73.536955,-1.688365],[-73.49995,-1.731195],[-73.459282,-1.736397],[-73.425651,-1.790303],[-73.383337,-1.774711],[-73.306764,-1.783441],[-73.203793,-1.763917],[-73.152068,-1.85758],[-73.112765,-1.872815],[-73.118668,-2.015701],[-73.0944,-2.042233],[-73.132027,-2.183553],[-73.168764,-2.22463],[-73.118996,-2.284539],[-73.068299,-2.315141],[-73.066414,-2.35524],[-72.963357,-2.343153],[-72.956004,-2.391551],[-72.889086,-2.43332],[-72.851799,-2.435783],[-72.769103,-2.386805],[-72.692117,-2.406285],[-72.595519,-2.366553],[-72.519155,-2.425216],[-72.466451,-2.421232],[-72.379418,-2.454981],[-72.368112,-2.489532],[-72.290897,-2.469137],[-72.258224,-2.432247],[-72.205671,-2.445952],[-72.147765,-2.415628],[-72.048741,-2.334936],[-72.010109,-2.368951],[-71.961961,-2.357141],[-71.926064,-2.307777],[-71.884756,-2.311594],[-71.832769,-2.190416],[-71.799133,-2.204369],[-71.740594,-2.142197],[-71.708504,-2.22733],[-71.66403,-2.202302],[-71.604076,-2.231389],[-71.463354,-2.27109],[-71.371086,-2.389352],[-71.316743,-2.374401],[-71.302388,-2.343572],[-71.231082,-2.337611],[-71.188174,-2.379578],[-71.133577,-2.285132],[-71.053329,-2.27062],[-71.000205,-2.207853],[-70.928666,-2.254152],[-70.879387,-2.220893],[-70.835953,-2.290815],[-70.777762,-2.29299],[-70.751236,-2.32827],[-70.665924,-2.353773],[-70.627068,-2.397535],[-70.638294,-2.465767],[-70.599304,-2.484436],[-70.475061,-2.455068],[-70.437234,-2.521247],[-70.357906,-2.489323],[-70.33458,-2.577889],[-70.273837,-2.547328],[-70.230065,-2.574588],[-70.21933,-2.643588],[-70.10327,-2.657362],[-70.066039,-2.684096],[-70.06006,-2.758917],[-70.139981,-2.89082],[-70.502637,-3.463229],[-70.711147,-3.790296],[-70.61902,-3.84006],[-70.573677,-3.830295],[-70.496411,-3.875809],[-70.346299,-3.79976],[-70.276307,-3.837631],[-70.246094,-3.890367],[-70.198004,-3.909605],[-70.174545,-3.969562],[-70.105035,-4.057467],[-70.059974,-4.086244],[-70.034079,-4.134413],[-69.955689,-4.207643],[-69.949592,-4.279383],[-69.974418,-4.332777],[-70.018599,-4.353255],[-70.07086,-4.322319],[-70.079367,-4.28541],[-70.158144,-4.277209],[-70.153829,-4.318999],[-70.180836,-4.355405],[-70.245825,-4.284616],[-70.278534,-4.228928],[-70.293949,-4.159307],[-70.432821,-4.131289],[-70.466311,-4.175755],[-70.526036,-4.136078],[-70.558676,-4.170801],[-70.616243,-4.193481],[-70.644622,-4.126947],[-70.694323,-4.186671],[-70.747028,-4.161211],[-70.816606,-4.197111],[-70.828584,-4.24815],[-70.864633,-4.256151],[-70.876382,-4.321646],[-70.948289,-4.376022],[-71.074234,-4.394101],[-71.105791,-4.376314],[-71.18548,-4.397893],[-71.212986,-4.376644],[-71.261884,-4.427827],[-71.340954,-4.439367],[-71.387728,-4.425602],[-71.41881,-4.464708],[-71.479177,-4.434917],[-71.535916,-4.462577],[-71.569564,-4.50823],[-71.615911,-4.528136],[-71.647905,-4.502732],[-71.706796,-4.509888],[-71.739702,-4.481637],[-71.864998,-4.526451],[-71.918597,-4.561913],[-71.982213,-4.627434],[-72.037401,-4.636662],[-72.103047,-4.70657],[-72.185933,-4.742791],[-72.269164,-4.79715],[-72.325886,-4.801557],[-72.378566,-4.834833],[-72.414935,-4.900318],[-72.520479,-4.932806],[-72.605357,-4.999185],[-72.606525,-5.028224],[-72.654553,-5.062836],[-72.728651,-5.054836],[-72.761075,-5.093112],[-72.88789,-5.165821],[-72.864031,-5.234594],[-72.867186,-5.290062],[-72.895688,-5.324969],[-72.924655,-5.40809],[-72.957903,-5.464397],[-72.949615,-5.547525],[-72.973732,-5.613442],[-72.958983,-5.65636],[-73.057347,-5.796485],[-73.152068,-5.86796],[-73.185462,-5.950084],[-73.186659,-6.004119],[-73.222341,-6.022062],[-73.249941,-6.133078],[-73.156599,-6.326802],[-73.111699,-6.446916],[-73.148861,-6.513765],[-73.199391,-6.569353],[-73.329348,-6.597781],[-73.392016,-6.641615],[-73.520829,-6.676103],[-73.561673,-6.72148],[-73.603293,-6.731981],[-73.71046,-6.84019],[-73.76131,-6.94012],[-73.76192,-7.06254],[-73.79842,-7.113061],[-73.716619,-7.227558],[-73.694879,-7.299067],[-73.722563,-7.341216],[-73.818664,-7.338219],[-73.861577,-7.388138],[-73.923734,-7.362212],[-73.940826,-7.393945],[-73.911316,-7.475838],[-73.94281,-7.533696],[-73.983033,-7.534361]]]}},{"type":"Feature","id":"10520","properties":{"name":"MADRE DE DIOS","density":0,"path":"/world/Peru/MADRE DE DIOS"},"geometry":{"type":"Polygon","coordinates":[[[-70.388467,-13.192389],[-70.464248,-13.159691],[-70.549847,-13.152864],[-70.58754,-13.10313],[-70.659756,-13.088459],[-70.758413,-13.108044],[-70.842961,-13.067048],[-70.921393,-13.110831],[-70.974521,-13.168286],[-71.040945,-13.26875],[-71.122012,-13.233529],[-71.168182,-13.094089],[-71.173042,-12.983335],[-71.238754,-12.971934],[-71.30101,-12.940695],[-71.354938,-12.883979],[-71.415244,-12.894259],[-71.451047,-12.824969],[-71.552133,-12.709302],[-71.600298,-12.700058],[-71.694969,-12.738793],[-71.746941,-12.796107],[-71.810592,-12.744978],[-71.881615,-12.730439],[-71.978595,-12.683331],[-71.956381,-12.654873],[-71.981396,-12.58049],[-72.031459,-12.524773],[-72.071132,-12.511484],[-72.061489,-12.440449],[-71.976013,-12.398783],[-71.973031,-12.320543],[-72.033841,-12.265045],[-72.105512,-12.23806],[-72.087559,-12.14269],[-72.094447,-12.085191],[-72.173733,-12.05981],[-72.268933,-12.054375],[-72.259303,-12.006303],[-72.284551,-11.97643],[-72.337466,-11.968075],[-72.347514,-11.891267],[-72.332154,-11.855527],[-72.391302,-11.826346],[-72.370768,-11.784967],[-72.428739,-11.708972],[-72.315508,-11.595577],[-72.292551,-11.433273],[-72.247894,-11.385006],[-72.239258,-11.345061],[-72.198183,-11.261697],[-72.20024,-11.205297],[-72.121406,-11.107141],[-72.184865,-11.06581],[-72.18209,-11.010242],[-72.130287,-10.990334],[-72.051739,-11.010912],[-72.016129,-10.989687],[-71.83567,-11.000475],[-71.720161,-10.996553],[-71.531614,-10.952229],[-71.357317,-10.951545],[-71.273377,-10.847357],[-71.257328,-10.784485],[-71.221186,-10.761384],[-71.229553,-10.688965],[-71.196213,-10.579861],[-71.127389,-10.504361],[-71.024533,-10.4782],[-70.967225,-10.381342],[-70.965881,-10.339814],[-70.922936,-10.32751],[-70.879189,-10.284248],[-70.817443,-10.256857],[-70.705111,-10.158681],[-70.707853,-10.135611],[-70.650526,-10.080343],[-70.672844,-10.035238],[-70.667627,-9.972453],[-70.613885,-9.916855],[-70.613648,-10.50026],[-70.613754,-11.000168],[-70.527832,-10.934277],[-70.455055,-10.995596],[-70.424301,-11.038346],[-70.307793,-11.070498],[-70.244582,-11.049386],[-70.199053,-11.054015],[-70.141226,-11.030059],[-70.094587,-10.989935],[-70.028019,-10.977625],[-69.953976,-10.928566],[-69.900525,-10.920605],[-69.788227,-10.929647],[-69.7393,-10.965041],[-69.634687,-10.957338],[-69.59686,-10.941737],[-69.562928,-10.966836],[-69.228332,-11.499824],[-69.103447,-11.681348],[-68.968272,-11.916314],[-68.654471,-12.49943],[-68.692212,-12.583601],[-68.732411,-12.610941],[-68.718884,-12.661841],[-68.741719,-12.724941],[-68.834693,-12.813158],[-68.835779,-12.85904],[-68.871567,-12.885467],[-68.871873,-13.003926],[-69.3106,-13.195783],[-69.647227,-13.341242],[-69.974162,-13.245102],[-70.032555,-13.223748],[-70.402868,-13.114413],[-70.388467,-13.192389]]]}},{"type":"Feature","id":"10521","properties":{"name":"MOQUEGUA","density":0,"path":"/world/Peru/MOQUEGUA"},"geometry":{"type":"Polygon","coordinates":[[[-71.139443,-17.821482],[-71.205648,-17.768648],[-71.372219,-17.681713],[-71.341082,-17.636988],[-71.358209,-17.588826],[-71.372566,-17.475391],[-71.39459,-17.389131],[-71.490799,-17.285006],[-71.440956,-17.251717],[-71.302246,-17.093851],[-71.339424,-17.021759],[-71.384613,-17.02111],[-71.440636,-16.865227],[-71.444305,-16.804674],[-71.425499,-16.740643],[-71.36943,-16.719677],[-71.327568,-16.752256],[-71.289093,-16.726458],[-71.279152,-16.615822],[-71.244797,-16.550228],[-71.245644,-16.466864],[-71.139519,-16.474974],[-71.07827,-16.458565],[-70.992454,-16.495867],[-70.952926,-16.460989],[-70.975243,-16.412165],[-70.98629,-16.309946],[-70.957016,-16.308403],[-70.853882,-16.241466],[-70.875061,-16.094578],[-70.856735,-16.056337],[-70.812569,-16.053961],[-70.820198,-15.978468],[-70.76864,-16.0168],[-70.705402,-16.031758],[-70.643318,-15.989736],[-70.560225,-15.988298],[-70.526075,-16.026723],[-70.40979,-16.076346],[-70.401942,-16.14903],[-70.359196,-16.20863],[-70.338758,-16.322798],[-70.382114,-16.384955],[-70.333402,-16.411447],[-70.30117,-16.478672],[-70.228666,-16.506076],[-70.175701,-16.56072],[-70.168702,-16.609616],[-70.087845,-16.655232],[-70.046973,-16.627965],[-70.001472,-16.656574],[-69.995563,-16.729776],[-70.050857,-16.763657],[-70.091086,-16.812118],[-70.094279,-16.890925],[-70.146625,-16.93873],[-70.247182,-16.952444],[-70.259066,-16.902033],[-70.205574,-16.808125],[-70.307611,-16.773047],[-70.441605,-16.841227],[-70.464723,-16.945684],[-70.449579,-17.081292],[-70.491856,-17.091374],[-70.527799,-17.168308],[-70.609978,-17.214504],[-70.684221,-17.22498],[-70.715917,-17.273652],[-70.752404,-17.380573],[-70.735578,-17.40123],[-70.87965,-17.55524],[-70.9125,-17.68737],[-70.992996,-17.679119],[-71.103143,-17.755275],[-71.139443,-17.821482]]]}},{"type":"Feature","id":"10522","properties":{"name":"PASCO","density":0,"path":"/world/Peru/PASCO"},"geometry":{"type":"Polygon","coordinates":[[[-76.278859,-10.923451],[-76.24117,-11.06112],[-76.26294,-11.1496],[-76.3079,-11.132664],[-76.31807,-11.091643],[-76.397217,-11.075762],[-76.491213,-11.089441],[-76.531303,-11.036064],[-76.580162,-11.010842],[-76.565077,-10.966179],[-76.580583,-10.866906],[-76.633486,-10.784528],[-76.659381,-10.688253],[-76.655655,-10.646782],[-76.701788,-10.593545],[-76.725054,-10.485715],[-76.69682,-10.442486],[-76.647197,-10.415139],[-76.490941,-10.378896],[-76.472804,-10.337768],[-76.33579,-10.28632],[-76.30931,-10.40562],[-76.271121,-10.371096],[-76.223039,-10.374883],[-76.130486,-10.42973],[-76.078829,-10.434014],[-76.057641,-10.465152],[-75.97581,-10.479336],[-75.92515,-10.40676],[-75.92441,-10.35603],[-75.8564,-10.30171],[-75.84013,-10.25827],[-75.7856,-10.25237],[-75.70397,-10.20669],[-75.70311,-10.13304],[-75.6749,-10.04708],[-75.60859,-10.02287],[-75.590327,-9.952473],[-75.548641,-9.983608],[-75.475729,-9.973958],[-75.395655,-9.91396],[-75.369356,-9.870833],[-75.287938,-9.870278],[-75.275822,-9.849764],[-75.30307,-9.783622],[-75.240751,-9.785835],[-75.160125,-9.839975],[-75.108398,-9.846254],[-75.059881,-9.819693],[-74.999442,-9.838454],[-74.943103,-9.761102],[-74.897668,-9.737111],[-74.849352,-9.748301],[-74.804426,-9.729822],[-74.807039,-9.686576],[-74.73517,-9.572707],[-74.750523,-9.524607],[-74.727699,-9.469969],[-74.677103,-9.428324],[-74.584561,-9.495624],[-74.575561,-9.570486],[-74.496763,-9.59335],[-74.485553,-9.702221],[-74.447581,-9.779959],[-74.450203,-9.870226],[-74.414552,-9.902112],[-74.424035,-9.989443],[-74.400608,-10.070519],[-74.366967,-10.112896],[-74.327755,-10.109653],[-74.303937,-10.163595],[-74.231661,-10.185052],[-74.224342,-10.27923],[-74.276711,-10.374074],[-74.25518,-10.452479],[-74.218734,-10.452113],[-74.181788,-10.504043],[-74.132673,-10.604911],[-74.16496,-10.63845],[-74.229851,-10.635495],[-74.281135,-10.674859],[-74.317306,-10.726707],[-74.374269,-10.758109],[-74.385681,-10.811767],[-74.484922,-10.836456],[-74.510041,-10.88035],[-74.572995,-10.912602],[-74.614102,-10.904625],[-74.649298,-10.867071],[-74.707947,-10.858132],[-74.760363,-10.82511],[-74.791803,-10.831125],[-74.831311,-10.780504],[-74.893308,-10.769133],[-74.956482,-10.732791],[-74.979258,-10.746887],[-75.016659,-10.677134],[-75.074316,-10.66581],[-75.119805,-10.73022],[-75.191017,-10.715708],[-75.24405,-10.76695],[-75.26236,-10.82529],[-75.317304,-10.863567],[-75.406376,-10.856126],[-75.465222,-10.901127],[-75.480761,-10.849783],[-75.459529,-10.785949],[-75.49025,-10.75683],[-75.57382,-10.746991],[-75.589667,-10.810898],[-75.69342,-10.834199],[-75.732372,-10.809192],[-75.78599,-10.82456],[-75.838381,-10.886299],[-75.858259,-10.867857],[-75.922752,-10.883146],[-75.992672,-10.820985],[-76.04448,-10.87952],[-76.09134,-10.90656],[-76.12293,-10.96264],[-76.190904,-10.96031],[-76.209797,-10.918967],[-76.223678,-10.915014],[-76.24908,-10.924551],[-76.258924,-10.920062],[-76.265805,-10.920168],[-76.278859,-10.923451]]]}},{"type":"Feature","id":"10523","properties":{"name":"PIURA","density":0,"path":"/world/Peru/PIURA"},"geometry":{"type":"Polygon","coordinates":[[[-79.21007,-4.965242],[-79.245086,-5.001359],[-79.294361,-5.11048],[-79.378408,-5.190521],[-79.348652,-5.232576],[-79.359049,-5.288627],[-79.328072,-5.315914],[-79.297699,-5.458127],[-79.272396,-5.518982],[-79.39832,-5.537018],[-79.375551,-5.606189],[-79.400689,-5.74951],[-79.38982,-5.79109],[-79.334068,-5.893631],[-79.418609,-5.9701],[-79.498939,-5.915189],[-79.600449,-5.93957],[-79.62642,-5.887449],[-79.631428,-5.829029],[-79.682711,-5.846445],[-79.737328,-5.83765],[-79.717281,-5.739348],[-79.786934,-5.646588],[-79.832935,-5.64549],[-79.86442,-5.56342],[-79.853986,-5.531818],[-79.903055,-5.491449],[-79.945873,-5.514996],[-79.969037,-5.582211],[-79.99483,-5.751945],[-80.130863,-5.888666],[-80.198914,-5.893],[-80.327414,-5.947441],[-80.376219,-6.006969],[-80.627133,-6.37208],[-80.79792,-6.288984],[-80.913135,-6.190584],[-81.091566,-6.082027],[-81.14926,-5.98124],[-81.149289,-5.88923],[-81.097461,-5.838174],[-81.068447,-5.785746],[-81.021697,-5.830557],[-80.943144,-5.84568],[-80.891488,-5.80982],[-80.861244,-5.749666],[-80.852547,-5.635488],[-80.897584,-5.511453],[-80.958477,-5.423086],[-81.05298,-5.33099],[-81.10815,-5.314746],[-81.138121,-5.263617],[-81.194553,-5.212119],[-81.133162,-5.070277],[-81.09067,-5.081738],[-81.060219,-5.039283],[-81.086416,-4.967334],[-81.176625,-4.855363],[-81.328103,-4.681885],[-81.309648,-4.661818],[-81.282447,-4.525189],[-81.303613,-4.48325],[-81.267143,-4.434068],[-81.249279,-4.354816],[-81.260656,-4.310891],[-81.237053,-4.250676],[-81.168584,-4.210463],[-81.100615,-4.128936],[-81.041418,-4.087547],[-80.971322,-4.127117],[-80.954728,-4.173447],[-80.882822,-4.192801],[-80.803307,-4.175967],[-80.70032,-4.187801],[-80.623221,-4.231779],[-80.56083,-4.174701],[-80.524346,-4.107414],[-80.487332,-4.083129],[-80.44932,-4.12525],[-80.434273,-4.195937],[-80.371289,-4.197555],[-80.32883,-4.223133],[-80.367176,-4.282051],[-80.426725,-4.336584],[-80.453777,-4.385615],[-80.438793,-4.456439],[-80.389543,-4.486111],[-80.290019,-4.434639],[-80.194861,-4.346361],[-80.178705,-4.303777],[-80.10424,-4.290957],[-79.991769,-4.379961],[-79.920699,-4.385609],[-79.87135,-4.412982],[-79.839844,-4.467603],[-79.793885,-4.492982],[-79.70876,-4.471492],[-79.655459,-4.43416],[-79.628141,-4.439109],[-79.563391,-4.514269],[-79.497939,-4.521228],[-79.479391,-4.57285],[-79.48825,-4.62599],[-79.3925,-4.831641],[-79.320701,-4.886853],[-79.263039,-4.96866],[-79.21007,-4.965242]]]}},{"type":"Feature","id":"10524","properties":{"name":"PUNO","density":0,"path":"/world/Peru/PUNO"},"geometry":{"type":"MultiPolygon","coordinates":[[[[-68.918389,-16.403721],[-68.918399,-16.233297],[-68.814217,-16.319773],[-68.814217,-16.347986],[-68.918389,-16.403721]]],[[[-69.64132,-17.28745],[-69.693598,-17.274643],[-69.73167,-17.294967],[-69.788246,-17.236443],[-69.8514,-17.243736],[-70.039719,-17.127968],[-70.046773,-17.056383],[-70.099638,-17.006009],[-70.146625,-16.93873],[-70.094279,-16.890925],[-70.091086,-16.812118],[-70.050857,-16.763657],[-69.995563,-16.729776],[-70.001472,-16.656574],[-70.046973,-16.627965],[-70.087845,-16.655232],[-70.168702,-16.609616],[-70.175701,-16.56072],[-70.228666,-16.506076],[-70.30117,-16.478672],[-70.333402,-16.411447],[-70.382114,-16.384955],[-70.338758,-16.322798],[-70.359196,-16.20863],[-70.401942,-16.14903],[-70.40979,-16.076346],[-70.526075,-16.026723],[-70.560225,-15.988298],[-70.643318,-15.989736],[-70.705402,-16.031758],[-70.76864,-16.0168],[-70.820198,-15.978468],[-70.843277,-15.923256],[-70.936142,-15.78484],[-70.900131,-15.712147],[-70.917984,-15.643801],[-71.008179,-15.563969],[-71.015175,-15.489165],[-70.993957,-15.454842],[-71.038971,-15.405166],[-71.012277,-15.343752],[-70.952299,-15.289843],[-70.985281,-15.24903],[-70.962502,-15.215637],[-70.976231,-15.175642],[-71.00405,-14.971877],[-70.98474,-14.946068],[-70.993835,-14.829164],[-70.975483,-14.764134],[-71.013093,-14.739694],[-71.05324,-14.75433],[-71.113676,-14.666732],[-71.00145,-14.572215],[-70.996728,-14.505692],[-70.962503,-14.444817],[-70.985821,-14.406726],[-70.962577,-14.361845],[-70.912968,-14.32758],[-70.880581,-14.270882],[-70.899349,-14.229302],[-70.86683,-14.16908],[-70.80893,-14.124199],[-70.795883,-14.072119],[-70.861814,-14.026228],[-70.833039,-13.9381],[-70.831273,-13.858932],[-70.768375,-13.814332],[-70.721361,-13.829342],[-70.698858,-13.803168],[-70.734747,-13.739017],[-70.715129,-13.662254],[-70.653913,-13.655936],[-70.616191,-13.609062],[-70.541724,-13.574489],[-70.534032,-13.52527],[-70.452618,-13.447918],[-70.44255,-13.39336],[-70.400073,-13.371739],[-70.392836,-13.314161],[-70.420408,-13.25857],[-70.388467,-13.192389],[-70.402868,-13.114413],[-70.032555,-13.223748],[-69.974162,-13.245102],[-69.647227,-13.341242],[-69.3106,-13.195783],[-68.871873,-13.003926],[-68.854389,-13.060735],[-68.874519,-13.115675],[-68.845451,-13.245914],[-68.91725,-13.486526],[-68.993008,-13.649857],[-69.06103,-13.656958],[-69.066119,-13.688314],[-68.97708,-13.758154],[-68.980639,-13.78333],[-68.917744,-13.813664],[-68.951386,-13.879091],[-68.982134,-13.894061],[-68.978097,-13.978037],[-68.9374,-14.025428],[-68.895644,-14.04126],[-68.85618,-14.162668],[-68.827799,-14.21942],[-68.962406,-14.220055],[-69.015243,-14.314709],[-68.985407,-14.374663],[-69.030926,-14.42609],[-69.083948,-14.451796],[-69.140604,-14.513435],[-69.15003,-14.580314],[-69.220043,-14.581558],[-69.229672,-14.656695],[-69.25798,-14.682884],[-69.225265,-14.740702],[-69.301204,-14.765299],[-69.353797,-14.801666],[-69.343871,-14.882727],[-69.361582,-14.949191],[-69.299228,-15.049504],[-69.285223,-15.094973],[-69.235773,-15.120252],[-69.131529,-15.233994],[-69.215642,-15.317158],[-69.248558,-15.370809],[-69.253511,-15.469193],[-69.290072,-15.43688],[-69.331118,-15.537947],[-69.434965,-15.482358],[-69.476696,-15.427249],[-69.568964,-15.354504],[-69.596478,-15.369362],[-69.641976,-15.320153],[-69.645079,-15.283287],[-69.699213,-15.233639],[-69.728252,-15.239062],[-69.772739,-15.308935],[-69.816299,-15.287595],[-69.89429,-15.295113],[-69.902462,-15.35576],[-69.942891,-15.396677],[-69.922112,-15.454852],[-69.860705,-15.557055],[-69.770692,-15.658389],[-69.750767,-15.72908],[-69.793859,-15.725301],[-69.845516,-15.685009],[-69.844915,-15.640678],[-69.892918,-15.593427],[-69.963469,-15.699754],[-70.017423,-15.690793],[-70.034204,-15.722986],[-70.024105,-15.78688],[-69.96331,-15.850884],[-69.883037,-15.890196],[-69.822121,-15.785446],[-69.767466,-15.831803],[-69.769308,-15.894958],[-69.713857,-15.916834],[-69.671739,-15.956605],[-69.562661,-15.959457],[-69.451735,-15.99361],[-69.423161,-16.047037],[-69.50351,-16.149803],[-69.494324,-16.208061],[-69.426466,-16.178819],[-69.358047,-16.250137],[-69.24116,-16.270438],[-69.145354,-16.253145],[-69.055259,-16.197362],[-68.97685,-16.257083],[-69.05064,-16.282704],[-69.021959,-16.331906],[-69.023138,-16.403942],[-69.084014,-16.46265],[-69.084561,-16.497132],[-69.036921,-16.559711],[-69.031303,-16.605809],[-68.996102,-16.656576],[-69.045289,-16.688328],[-69.170014,-16.727535],[-69.219245,-16.836131],[-69.304675,-16.915841],[-69.343639,-16.986868],[-69.394631,-17.023875],[-69.373739,-17.073123],[-69.449129,-17.097751],[-69.511849,-17.146171],[-69.556902,-17.159275],[-69.64132,-17.28745]],[[-69.887743,-15.206933],[-69.932614,-15.153919],[-69.956854,-15.172498],[-70.020355,-15.153634],[-70.044952,-15.110658],[-70.116164,-15.16793],[-70.060544,-15.194047],[-69.951819,-15.219721],[-69.887743,-15.206933]]]]}},{"type":"Feature","id":"10525","properties":{"name":"SAN MARTIN","density":0,"path":"/world/Peru/SAN MARTIN"},"geometry":{"type":"Polygon","coordinates":[[[-75.984963,-8.32215],[-76.087176,-8.336906],[-76.130441,-8.467211],[-76.115926,-8.657574],[-76.166439,-8.756414],[-76.230154,-8.796295],[-76.266683,-8.655047],[-76.278465,-8.577461],[-76.324185,-8.524135],[-76.333468,-8.429474],[-76.416801,-8.443437],[-76.443954,-8.488792],[-76.466167,-8.569743],[-76.542687,-8.509711],[-76.624316,-8.511953],[-76.697271,-8.532408],[-76.831584,-8.516655],[-76.847267,-8.546482],[-76.916298,-8.57016],[-77.049801,-8.553715],[-77.091651,-8.516981],[-77.088879,-8.482822],[-77.133844,-8.440021],[-77.08548,-8.406223],[-76.976481,-8.395944],[-76.913745,-8.32609],[-76.901243,-8.283466],[-76.925597,-8.218497],[-76.906998,-8.170736],[-76.986723,-8.111225],[-77.019562,-8.052687],[-77.118324,-8.025244],[-77.150535,-8.032043],[-77.238289,-8.013324],[-77.292256,-8.060089],[-77.385473,-8.055387],[-77.40713,-7.991986],[-77.376909,-7.908821],[-77.406783,-7.902493],[-77.442861,-7.813642],[-77.479834,-7.803292],[-77.527777,-7.757583],[-77.484529,-7.699714],[-77.536705,-7.582281],[-77.526918,-7.504839],[-77.610271,-7.434858],[-77.635709,-7.357446],[-77.628646,-7.320024],[-77.646746,-7.24074],[-77.60553,-7.219162],[-77.643534,-7.149001],[-77.713379,-7.107887],[-77.758934,-6.964508],[-77.723325,-6.893456],[-77.761718,-6.807748],[-77.746714,-6.751838],[-77.745606,-6.665158],[-77.693363,-6.678525],[-77.612337,-6.612261],[-77.544074,-6.676996],[-77.381733,-6.697589],[-77.436149,-6.605217],[-77.39387,-6.602688],[-77.335152,-6.522328],[-77.326357,-6.468027],[-77.273159,-6.406531],[-77.28666,-6.331023],[-77.260008,-6.327706],[-77.221456,-6.381133],[-77.171732,-6.38117],[-77.132725,-6.302421],[-77.199996,-6.231179],[-77.222985,-6.146896],[-77.281533,-6.141718],[-77.346428,-6.114341],[-77.395498,-6.039377],[-77.434463,-6.060412],[-77.478615,-6.000894],[-77.533809,-6.063371],[-77.593456,-6.009347],[-77.669225,-5.980365],[-77.651891,-5.935332],[-77.677883,-5.859647],[-77.763929,-5.819709],[-77.773707,-5.685207],[-77.736891,-5.605139],[-77.765762,-5.538982],[-77.768451,-5.438049],[-77.743035,-5.406467],[-77.695958,-5.411053],[-77.670364,-5.409645],[-77.581669,-5.461176],[-77.558119,-5.425578],[-77.517399,-5.466748],[-77.461943,-5.58414],[-77.408729,-5.58916],[-77.370074,-5.569556],[-77.338318,-5.603473],[-77.231941,-5.595461],[-77.04173,-5.674708],[-76.995606,-5.667119],[-76.961353,-5.706077],[-76.888218,-5.748411],[-76.835451,-5.745555],[-76.818051,-5.862145],[-76.746728,-5.954028],[-76.747697,-6.003643],[-76.640011,-6.002605],[-76.548453,-6.022455],[-76.412269,-5.950664],[-76.372787,-5.97376],[-76.318297,-6.086095],[-76.273241,-6.104386],[-76.223631,-6.166031],[-76.127211,-6.176705],[-76.032103,-6.099664],[-75.965435,-6.095198],[-75.930798,-6.136649],[-75.834451,-6.139095],[-75.81483,-6.1009],[-75.71502,-6.13827],[-75.68037,-6.09563],[-75.62896,-6.08212],[-75.613894,-6.02324],[-75.571105,-6.003988],[-75.532794,-6.095599],[-75.525555,-6.165126],[-75.487188,-6.203415],[-75.490311,-6.267036],[-75.550095,-6.347708],[-75.509597,-6.492141],[-75.500228,-6.640322],[-75.501233,-6.767046],[-75.511802,-6.78557],[-75.633442,-6.843062],[-75.668097,-6.826417],[-75.697699,-6.868603],[-75.768429,-6.853818],[-75.843875,-6.797262],[-75.963652,-6.788423],[-76.051043,-6.810923],[-76.010529,-6.893611],[-76.051463,-6.944296],[-76.010791,-6.996536],[-76.010717,-7.07838],[-76.059945,-7.161301],[-76.143525,-7.203962],[-76.166661,-7.267596],[-76.213111,-7.310143],[-76.196038,-7.333528],[-76.214551,-7.404521],[-76.166145,-7.494307],[-76.091374,-7.560356],[-76.101593,-7.722664],[-76.043803,-7.792344],[-75.966979,-7.960359],[-75.859386,-7.921169],[-75.829493,-7.973496],[-75.844933,-8.059638],[-75.917006,-8.071776],[-75.949593,-8.099233],[-75.941165,-8.186184],[-75.913362,-8.254387],[-75.934889,-8.311552],[-75.984963,-8.32215]]]}},{"type":"Feature","id":"10526","properties":{"name":"TACNA","density":0,"path":"/world/Peru/TACNA"},"geometry":{"type":"Polygon","coordinates":[[[-69.64132,-17.28745],[-69.575219,-17.29259],[-69.467316,-17.373537],[-69.468293,-17.50417],[-69.665412,-17.6599],[-69.795988,-17.646242],[-69.821197,-17.686355],[-69.800049,-17.762332],[-69.795715,-17.862258],[-69.747178,-17.943937],[-69.751504,-17.98559],[-69.81308,-18.114478],[-69.854309,-18.165348],[-69.960549,-18.262885],[-70.050707,-18.268803],[-70.149652,-18.318367],[-70.286805,-18.308105],[-70.376711,-18.350928],[-70.481289,-18.273412],[-70.678574,-18.161848],[-70.813156,-18.040488],[-70.879189,-18.014754],[-70.895629,-17.963459],[-71.011006,-17.876748],[-71.096844,-17.867725],[-71.139443,-17.821482],[-71.103143,-17.755275],[-70.992996,-17.679119],[-70.9125,-17.68737],[-70.87965,-17.55524],[-70.735578,-17.40123],[-70.752404,-17.380573],[-70.715917,-17.273652],[-70.684221,-17.22498],[-70.609978,-17.214504],[-70.527799,-17.168308],[-70.491856,-17.091374],[-70.449579,-17.081292],[-70.464723,-16.945684],[-70.441605,-16.841227],[-70.307611,-16.773047],[-70.205574,-16.808125],[-70.259066,-16.902033],[-70.247182,-16.952444],[-70.146625,-16.93873],[-70.099638,-17.006009],[-70.046773,-17.056383],[-70.039719,-17.127968],[-69.8514,-17.243736],[-69.788246,-17.236443],[-69.73167,-17.294967],[-69.693598,-17.274643],[-69.64132,-17.28745]]]}},{"type":"Feature","id":"10527","properties":{"name":"TUMBES","density":0,"path":"/world/Peru/TUMBES"},"geometry":{"type":"Polygon","coordinates":[[[-80.487332,-4.083129],[-80.524346,-4.107414],[-80.56083,-4.174701],[-80.623221,-4.231779],[-80.70032,-4.187801],[-80.803307,-4.175967],[-80.882822,-4.192801],[-80.954728,-4.173447],[-80.971322,-4.127117],[-81.041418,-4.087547],[-80.987388,-3.985711],[-80.956545,-3.956199],[-80.833646,-3.875758],[-80.794619,-3.760203],[-80.7536,-3.71817],[-80.582973,-3.636215],[-80.544846,-3.589732],[-80.504875,-3.508951],[-80.433565,-3.48985],[-80.380707,-3.492793],[-80.292359,-3.408805],[-80.220521,-3.443858],[-80.239728,-3.477789],[-80.206174,-3.534518],[-80.188769,-3.597934],[-80.180809,-3.738582],[-80.160432,-3.802391],[-80.158555,-3.869818],[-80.140242,-3.912962],[-80.240209,-3.95623],[-80.298076,-4.017258],[-80.362626,-3.983161],[-80.430244,-3.989504],[-80.487332,-4.083129]]]}},{"type":"Feature","id":"10528","properties":{"name":"UCAYALI","density":0,"path":"/world/Peru/UCAYALI"},"geometry":{"type":"Polygon","coordinates":[[[-70.613885,-9.916855],[-70.667627,-9.972453],[-70.672844,-10.035238],[-70.650526,-10.080343],[-70.707853,-10.135611],[-70.705111,-10.158681],[-70.817443,-10.256857],[-70.879189,-10.284248],[-70.922936,-10.32751],[-70.965881,-10.339814],[-70.967225,-10.381342],[-71.024533,-10.4782],[-71.127389,-10.504361],[-71.196213,-10.579861],[-71.229553,-10.688965],[-71.221186,-10.761384],[-71.257328,-10.784485],[-71.273377,-10.847357],[-71.357317,-10.951545],[-71.531614,-10.952229],[-71.720161,-10.996553],[-71.83567,-11.000475],[-72.016129,-10.989687],[-72.051739,-11.010912],[-72.130287,-10.990334],[-72.18209,-11.010242],[-72.184865,-11.06581],[-72.121406,-11.107141],[-72.20024,-11.205297],[-72.198183,-11.261697],[-72.239258,-11.345061],[-72.307709,-11.307],[-72.37883,-11.332639],[-72.479868,-11.387421],[-72.535086,-11.43508],[-72.609987,-11.428238],[-72.706561,-11.381505],[-72.738238,-11.347429],[-72.794294,-11.384291],[-72.897019,-11.357926],[-72.951909,-11.33063],[-72.939126,-11.282078],[-72.968584,-11.264121],[-72.989665,-11.198797],[-73.026509,-11.264085],[-73.137374,-11.293773],[-73.203301,-11.28999],[-73.257446,-11.312709],[-73.331331,-11.311265],[-73.419749,-11.383938],[-73.484087,-11.319344],[-73.46011,-11.302711],[-73.450099,-11.224749],[-73.482603,-11.065242],[-73.542579,-11.047424],[-73.571491,-10.958094],[-73.560261,-10.860609],[-73.610396,-10.846574],[-73.696193,-10.773029],[-73.7572,-10.735905],[-73.814217,-10.799896],[-73.823407,-10.921073],[-73.85411,-10.954906],[-73.866573,-11.037353],[-73.861304,-11.14553],[-73.978272,-11.120627],[-73.978738,-11.070033],[-74.005498,-10.993193],[-74.091778,-10.986815],[-74.201475,-11.019664],[-74.256436,-11.018223],[-74.373655,-11.056522],[-74.44541,-11.004852],[-74.500081,-10.995998],[-74.508384,-10.9503],[-74.572995,-10.912602],[-74.510041,-10.88035],[-74.484922,-10.836456],[-74.385681,-10.811767],[-74.374269,-10.758109],[-74.317306,-10.726707],[-74.281135,-10.674859],[-74.229851,-10.635495],[-74.16496,-10.63845],[-74.132673,-10.604911],[-74.181788,-10.504043],[-74.218734,-10.452113],[-74.25518,-10.452479],[-74.276711,-10.374074],[-74.224342,-10.27923],[-74.231661,-10.185052],[-74.303937,-10.163595],[-74.327755,-10.109653],[-74.366967,-10.112896],[-74.400608,-10.070519],[-74.424035,-9.989443],[-74.414552,-9.902112],[-74.450203,-9.870226],[-74.447581,-9.779959],[-74.485553,-9.702221],[-74.496763,-9.59335],[-74.575561,-9.570486],[-74.584561,-9.495624],[-74.677103,-9.428324],[-74.674309,-9.394473],[-74.589439,-9.303176],[-74.639564,-9.159682],[-74.640709,-9.118564],[-74.678094,-9.094039],[-74.651366,-9.048768],[-74.644311,-8.918783],[-74.60892,-8.820228],[-74.532178,-8.776133],[-74.525351,-8.749316],[-74.547135,-8.584567],[-74.617816,-8.548719],[-74.797527,-8.631712],[-74.846683,-8.661235],[-74.850558,-8.756891],[-74.940712,-8.857893],[-74.934164,-8.930225],[-74.978859,-8.952039],[-75.045562,-8.904217],[-75.094369,-8.922299],[-75.143303,-8.972193],[-75.150986,-9.038717],[-75.181016,-9.080998],[-75.23758,-9.106771],[-75.210602,-9.159137],[-75.209715,-9.229943],[-75.26233,-9.270367],[-75.282723,-9.309832],[-75.328941,-9.297029],[-75.452101,-9.296723],[-75.494391,-9.377355],[-75.562445,-9.400172],[-75.670838,-9.396644],[-75.731758,-9.272266],[-75.794113,-9.188365],[-75.806465,-9.121486],[-75.875861,-9.021459],[-75.874352,-8.970254],[-75.917297,-8.879238],[-75.921646,-8.780809],[-75.94575,-8.716139],[-75.891852,-8.661568],[-75.833387,-8.652289],[-75.779639,-8.547415],[-75.778681,-8.493853],[-75.71647,-8.487328],[-75.70701,-8.439325],[-75.648131,-8.409752],[-75.599063,-8.411978],[-75.54662,-8.466502],[-75.44079,-8.436833],[-75.435324,-8.393113],[-75.504059,-8.348841],[-75.502877,-8.289412],[-75.471465,-8.252073],[-75.430096,-8.166598],[-75.376147,-8.138777],[-75.287803,-8.125513],[-75.243885,-8.155518],[-75.214572,-8.127144],[-75.184338,-8.016602],[-75.142491,-7.978641],[-75.03335,-7.950055],[-74.98226,-7.968986],[-74.896438,-8.081268],[-74.771256,-8.036063],[-74.727944,-7.981009],[-74.627984,-7.939828],[-74.569745,-7.81598],[-74.515718,-7.777173],[-74.557889,-7.748482],[-74.584032,-7.698494],[-74.57082,-7.668488],[-74.643144,-7.562285],[-74.642902,-7.500086],[-74.616074,-7.435038],[-74.579521,-7.409929],[-74.535727,-7.294427],[-74.501769,-7.266078],[-74.462652,-7.298941],[-74.316232,-7.35127],[-74.259025,-7.344052],[-74.180857,-7.358747],[-74.138389,-7.396352],[-74.039966,-7.448155],[-74.0338,-7.484865],[-73.983033,-7.534361],[-73.889457,-7.60318],[-73.900178,-7.638965],[-73.837271,-7.670596],[-73.803293,-7.713985],[-73.714029,-7.742964],[-73.676314,-7.800027],[-73.67816,-7.857964],[-73.767014,-7.910412],[-73.706184,-7.961764],[-73.668897,-8.012294],[-73.640298,-8.006514],[-73.584772,-8.126839],[-73.59547,-8.165799],[-73.562992,-8.245498],[-73.526002,-8.274359],[-73.542906,-8.347588],[-73.373123,-8.471789],[-73.330977,-8.475864],[-73.34414,-8.602744],[-73.319672,-8.610623],[-73.251192,-8.690644],[-73.167241,-8.698298],[-73.114256,-8.785514],[-73.112014,-8.819298],[-73.037101,-8.91618],[-73.00127,-8.916906],[-72.94795,-9.028872],[-72.939994,-9.093248],[-72.963542,-9.143765],[-73.064086,-9.227695],[-73.156197,-9.356734],[-73.18876,-9.363223],[-73.200439,-9.411396],[-72.716912,-9.412186],[-72.530397,-9.48231],[-72.407062,-9.477291],[-72.281326,-9.542299],[-72.288322,-9.602816],[-72.246018,-9.657279],[-72.258994,-9.712191],[-72.214869,-9.778816],[-72.151361,-9.797416],[-72.162056,-9.831068],[-72.150712,-9.905742],[-72.173888,-9.930193],[-72.180404,-9.999672],[-71.735771,-9.99975],[-71.375045,-10.000144],[-71.342764,-9.966773],[-71.297436,-9.992178],[-71.191986,-9.940393],[-71.157646,-9.872148],[-71.050965,-9.815838],[-70.998383,-9.818213],[-70.974021,-9.760738],[-70.924511,-9.74164],[-70.868134,-9.664763],[-70.799178,-9.641922],[-70.74976,-9.56929],[-70.657772,-9.514258],[-70.56259,-9.430427],[-70.513717,-9.492803],[-70.539309,-9.535292],[-70.59185,-9.548545],[-70.598244,-9.607287],[-70.55117,-9.669807],[-70.528068,-9.726016],[-70.536629,-9.76584],[-70.612281,-9.805398],[-70.613885,-9.916855]]]}}],"style":{"stroke":"#000000","fill":"#3498DB","stroke-width":1,"fill-opacity":0.8}}